name,lat,lng,address
葛鎂診所,25.0446556,121.5148555,臺北市中正區館前路34號9樓

永康身心診所,25.0375943,121.5283148,臺北市中正區金山南路1段127號1樓

台北新顏診所,25.0452932,121.5154552,臺北市中正區許昌街42號(6樓)

醫療財團法人徐元智先生醫藥基金會遠東聯合診所,25.042991,121.511026,臺北市中正區永綏街8至14號

醫療財團法人好心肝基金會好心肝診所,25.0444922,121.5168594,臺北市中正區公園路30號2樓之2、8樓之1、8樓之2

蔡瑞芳眼科診所,25.0314662,121.5197163,臺北市中正區羅斯福路一段73號(實際營業地址一層)、75號2樓

小千醫師診所,25.0411256,121.5316292,臺北市中正區忠孝東路二段134巷16號

蘭心診所,25.0282874,121.5195775,臺北市中正區南昌路二段11號、15號

祈約美醫皮膚科診所,25.0409434,121.5265405,臺北市中正區濟南路2段17號4樓

惠森復健科診所,25.0212035,121.5255369,臺北市中正區師大路172號、172號之1號

皇妍時尚整形外科診所,25.0457721,121.5181116,臺北市中正區忠孝西路一段6號8樓

東妍診所,25.034477,121.528818,臺北市中正區信義路二段161巷8號2樓、8號2樓之1、12號(實際營業地址1、2樓)

宜康診所,25.035265,121.5322764,臺北市中正區新生南路一段148號

藝群台北診所,25.0471797,121.5125535,臺北市中正區忠孝西路一段102號4樓

君綺美形診所,25.0421407,121.5198716,臺北市中正區忠孝西路1段6號13樓

美嘉美整形外科診所,25.033844,121.531369,臺北市中正區信義路二段251號5樓

日明耀診所,25.0436593,121.5130099,臺北市中正區重慶南路一段66之1號2樓之1

立光診所,25.0446759,121.511328,臺北市中正區博愛路76號2樓

和眾綜合診所,25.0457882,121.5179649,臺北市中正區忠孝西路一段6號

家禾診所,25.0276749,121.5133825,臺北市中正區三元街217號1樓、2樓

虹約復健專科診所,25.0344053,121.5269823,臺北市中正區信義路二段91號2樓之2

百麗診所,25.0429136,121.5226073,臺北市中正區林森南路10號6樓之2

波菲特醫美診所,25.0263416,121.5226985,臺北市中正區羅斯福路二段116號4樓之1

靚白天使時尚美學診所,25.0460953,121.5133872,臺北市中正區重慶南路一段13號9樓

身新醫學診所,25.034063,121.530158,臺北市中正區連雲街87號5樓

李明儒耳鼻喉科診所,25.0272421,121.5068863,臺北市中正區中華路二段341號

古亭光澤診所,25.0263416,121.5226985,臺北市中正區羅斯福路2段116號、116號2樓、116號2樓之1

目急國際診所,25.0442566,121.5095569,臺北市中正區武昌街一段77號6樓之17

元泰診所,25.0233442,121.5247924,臺北市中正區羅斯福路3段2號2樓

懷寧復健科診所,25.0417613,121.5139108,臺北市中正區懷寧街110號1樓、7樓

美好健康診所,25.034192,121.530168,臺北市中正區連雲街83號(實際營業地址:1樓、2樓、3樓)

大心古亭診所,25.0240379,121.52432,臺北市中正區南昌路二段206號5樓之1

博士診所,25.0452434,121.5159572,臺北市中正區南陽街8號地下1樓

衡觀診所,25.0420781,121.5130691,臺北市中正區衡陽路20號6樓

鈞安診所,25.0253098,121.5090648,臺北市中正區中華路2段431號1樓

光澤晶漾診所,25.045466,121.5148084,臺北市中正區館前路18號6樓

台北諾貝爾眼科診所,25.0456119,121.5174536,臺北市中正區公園路13號5樓

星和診所,25.0464364,121.5148336,臺北市中正區館前路2號6樓之1

捷思身心醫學診所,25.0428082,121.5304613,臺北市中正區忠孝東路二段100號5樓之7

臻健康診所,25.0307869,121.5042589,臺北市中正區中華路2段165之1號

站前愛爾麗診所,25.0421407,121.5198716,臺北市中正區忠孝西路1段6號8樓

佳飛雅醫美診所,25.0005937,121.5546312,臺北市中正區辛亥路1段49號(實際營業地址1層及2層)

永愉診所,25.0452974,121.5216527,臺北市中正區忠孝東路1段54號3樓

站前聖宜診所,25.0454268,121.5154761,臺北市中正區許昌街42號(7樓)

久瑞復健科診所,25.0384859,121.5271365,臺北市中正區仁愛路2段21號、21之1號、23號

超全能診所,25.0416256,121.531934,臺北市中正區忠孝東路2段136號1樓

好甘心診所,25.0444922,121.5168594,臺北市中正區公園路30號9樓之1、9樓之2、11樓之1、11樓之2、11樓之3

古亭適康復健科診所,25.0242666,121.524062,臺北市中正區南昌路2段196號(1樓)、200號地下1樓、200號1樓、200號2樓

美渥館診所,25.0340017,121.5099968,臺北市中正區博愛路224巷5號6樓

蒂恩美學診所,25.0370259,121.5325018,臺北市中正區新生南路1段128號4樓

銘人診所,25.0459458,121.5115058,臺北市中正區博愛路9號3樓

立達診所,25.0452974,121.5216527,臺北市中正區忠孝東路1段54號1樓、54之1號(1樓)、54之2號(1樓)、54號2樓、54號3樓

力安妥診所,25.0421719,121.512712,臺北市中正區衡陽路30號(2樓)

站前美力時尚診所,25.0452756,121.5148709,臺北市中正區館前路20號4樓、11樓

君綺美麗診所,25.0421407,121.5198716,臺北市中正區忠孝西路1段6號13樓

古亭復健診所,25.0199623,121.5286465,臺北市中正區羅斯福路3段160號1樓、162號(1、2樓)

幫痘氏公館皮膚科診所,25.0161649,121.5325259,臺北市中正區羅斯福路3段308號1、2、3樓

安妞美學診所,25.0241064,121.5247381,臺北市中正區羅斯福路1段133號2樓

千美診所,25.0407182,121.5325301,臺北市中正區新生南路1段60號3樓

薇璽美學診所,25.0452974,121.5216527,臺北市中正區忠孝東路1段13號7樓

禾瑞印象診所,25.033876,121.53042,臺北市中正區信義路2段213號5樓

韓娜斯時尚美醫診所,25.043516,121.511629,臺北市中正區博愛路83號2樓、85號2樓

海漾大健康管理診所,25.0211046,121.5199908,臺北市中正區水源路77號7樓之1

晶翎美學診所,25.0380017,121.5295279,臺北市中正區仁愛路2段70號1、2樓、72號(1樓)

台北澄清眼科診所,25.0421407,121.5198716,臺北市中正區忠孝西路1段80號3樓

慢活靜心診所,25.0426936,121.5116131,臺北市中正區博愛路105號3樓

珍顏唯上診所,25.0463287,121.5148673,臺北市中正區館前路2號6樓

濰視眼科診所,25.0453997,121.5151274,臺北市中正區館前路43號(2樓)

醫健診所,25.0411374,121.5325687,臺北市中正區新生南路1段56號8樓

臺北市立聯合醫院附設中正門診部,25.0304151,121.5159216,臺北市中正區牯嶺街24號

國軍台北門診中心附設民眾診療服務處,25.0400239,121.5244335,臺北市中正區紹興南街7號

外交部醫務室,25.0389538,121.5163151,臺北市中正區凱達格蘭大道2號

衛生福利部疾病管制署健康中心,25.0433401,121.5226958,臺北市中正區林森南路6號1樓

中央銀行秘書處醫務室,25.0340418,121.516894,臺北市中正區羅斯福路一段2號(實際營業地址:第二大樓2樓)

敦智內科診所,25.045433,121.5143245,臺北市中正區懷寧街１９號

吉星診所,25.043849,121.5215871,臺北市中正區青島東路４－５號１樓

劉瑞聰診所,25.0280961,121.5091889,臺北市中正區汀州路一段１９４號

孫睿亮診所,25.0360952,121.5278548,臺北市中正區金山南路一段１２１號

鄭文宗耳鼻喉科診所,25.0338309,121.531829,臺北市中正區信義路二段２６７號

古亭中心耳鼻喉科診所,25.0309374,121.5042507,臺北市中正區中華路二段１６１號

林診所,25.0326938,121.5202481,臺北市中正區寧波東街２２號

朱小兒科診所,25.022065,121.5240207,臺北市中正區汀州路二段２２０號１樓

雙合耳鼻喉科聯合診所,25.0302154,121.5074564,臺北市中正區汀州路一段96號

張孟源內科診所,25.0276233,121.5064868,臺北市中正區中華路二段３２５號

周正成小兒科診所,25.0406064,121.5233726,臺北市中正區徐州路24號

丞泰耳鼻喉科診所,25.030983,121.517267,臺北市中正區南昌路一段７８號

蕭耳鼻喉科診所,25.024804,121.5200177,臺北市中正區汀州路二段二六一號

彭內科診所,25.026132,121.5178204,臺北市中正區廈門街35號

車參聖整形外科診所,25.0468931,121.5134161,臺北市中正區重慶南路1段13號5樓、6樓

池振坤耳鼻喉科診所,25.030793,121.517409,臺北市中正區南昌路一段88號2樓之1

劉家庭醫學科診所,25.0396026,121.5255215,臺北市中正區杭州南路一段一四五號一、二樓

柯滄銘婦產科診所,25.0429136,121.5226073,臺北市中正區林森南路10號、10之1號、10號2樓、12號2樓、10號4樓、10號4樓之2

蕙瑛婦產科診所,25.0462501,121.5181923,臺北市中正區忠孝西路一段五十號二十四樓之二十四

林超群眼科診所,25.041569,121.513255,臺北市中正區重慶南路一段143號2樓

紹毅內兒科診所,25.0421407,121.5198716,臺北市中正區八德路1段50號1樓、50 號2樓、52號(1樓)、52之1號(2樓)

羅綺皮膚科診所,25.0427329,121.5219127,臺北市中正區濟南路一段7號4樓

戰痘診所,25.0435416,121.5154426,臺北市中正區襄陽路17號(1樓)

同泰診所,25.024804,121.5200177,臺北市中正區汀州路二段一三六號、一三八號

親子診所,25.028498,121.512409,臺北市中正區和平西路二段５０號

惠恩診所,25.0401777,121.5317532,臺北市中正區濟南路二段四十八巷三至二號

李相台診所,25.035265,121.5322764,臺北市中正區新生南路一段１４８號２樓之１

長虹診所,25.0452843,121.5170536,臺北市中正區公園路十三號一、二、四樓，地下一樓

蔡明勳診所,25.0280588,121.5214181,臺北市中正區羅斯福路二段４０號１樓

拉菲爾人本診所,25.044892,121.5154773,臺北市中正區館前路49號11樓

怡和診所,25.024804,121.5200177,臺北市中正區汀州路二段二一二號

奕康耳鼻喉科診所,25.0345311,121.5299552,臺北市中正區連雲街72號2樓

李世輝耳鼻喉科診所,25.030632,121.517804,臺北市中正區南昌路一段79號

東京風采整形外科診所,25.0380235,121.528043,臺北市中正區仁愛路二段48號7樓

健康101診所,25.0258662,121.5191269,臺北市中正區牯嶺街97號1樓

站前大學眼科診所,25.0457878,121.5147909,臺北市中正區館前路8號3樓

美學院整形外科診所,25.0161459,121.532593,臺北市中正區羅斯福路三段312號7樓

新生活診所,25.035756,121.5324856,臺北市中正區新生南路一段140號2樓

風華整形外科診所,25.0421407,121.5198716,臺北市中正區忠孝西路1段6號2、3樓

新公園診所,25.0434909,121.5163069,臺北市中正區襄陽路3號3樓

好健康診所,25.0444064,121.5167927,臺北市中正區公園路30號11樓

美兆診所,25.0468664,121.5137659,臺北市中正區忠孝西路1段66號44.45樓

美診所,25.0411374,121.5325687,臺北市中正區新生南路1段56號4樓

星采皮膚專科診所,25.0313271,121.5189353,臺北市中正區羅斯福路一段32號2樓

長春藤台北忠孝診所,25.0421407,121.5198716,臺北市中正區忠孝西路1段50號27樓、27樓之3

?安診所,25.02664,121.520863,臺北市中正區和平西路一段20號5樓

悅心診所,25.0290353,121.5212574,臺北市中正區羅斯福路2段7之2號、7之3號

美麗新診所,25.0468931,121.5134161,臺北市中正區重慶南路1段43號2樓之1、2樓之2

時尚診所,25.0461196,121.5187581,臺北市中正區忠孝西路一段33號10樓

米蘭時尚診所,25.0452974,121.5216527,臺北市中正區忠孝東路1段43號、45號、45號2樓之1、45號2樓之2、45號2樓之3、45號2樓之5、47號、47之1號、45號10樓之1、45號10樓之2

宏孕診所,25.0411374,121.5325687,臺北市中正區新生南路1段56號14、15樓

禾馨婦產科診所,25.043096,121.51395,臺北市中正區懷寧街78號、78號2樓

慕顏時尚美學診所,25.0424352,121.5137324,臺北市中正區衡陽路7號14樓

渾然天成診所,25.0421407,121.5198716,臺北市中正區忠孝西路1段45號3樓

祈新婦產科診所,25.043096,121.51395,臺北市中正區懷寧街78號9、10樓

平安身心精神科診所,25.0188044,121.5298659,臺北市中正區羅斯福路三段218號

悠媞時尚診所,25.0454166,121.5158347,臺北市中正區許昌街30號4樓

佳妍診所,25.025943,121.52285,臺北市中正區羅斯福路2段136號2樓

博士眼科診所,25.0272722,121.5220185,臺北市中正區羅斯福路二段70號4樓之6、70號4樓之7、70號4樓之8

時尚假期整形醫美診所,25.0539382,121.514908,臺北市大同區南京西路278號2樓

喜顏快時尚診所,25.0523242,121.5199036,臺北市大同區南京西路18巷4弄4之1號1樓

台全診所,25.0502021,121.517103,臺北市大同區承德路1段17之1號(1樓)、17之2號(1樓)、17之3號(1樓)、17之4號(1樓)及17號地下1層

臺北市立聯合醫院附設大同門診部,25.0656996,121.5162533,臺北市大同區昌吉街52號(1樓及2樓)

鈞生診所,25.058839,121.512772,臺北市大同區甘州街２８號

施小兒科診所,25.0651103,121.5134393,臺北市大同區重慶北路三段２８號

蔡健生內、神經科診所,25.069072,121.5166971,臺北市大同區大龍街１８７巷３０號

蔡皮膚科診所,25.057488,121.5139,臺北市大同區重慶北路二段１１５號

黃博裕小兒科診所,25.0557732,121.5203095,臺北市大同區赤峰街４９巷２１號

桂林內科診所,25.0516086,121.5154525,臺北市大同區太原路６２號

陳重熙內科小兒科診所,25.0593735,121.5140788,臺北市大同區保安街３之４號

余自興眼科診所,25.070191,121.5136876,臺北市大同區重慶北路三段二一三號一樓

黃眼科診所,25.0714112,121.5135838,臺北市大同區重慶北路三段２５６號２樓

大龍峒耳鼻喉科診所,25.0687788,121.5130802,臺北市大同區民族西路223之5號

包眼科診所,25.059027,121.51265,臺北市大同區保安街５４之１號

朱世輝耳鼻喉科診所,25.062726,121.517306,臺北市大同區民權西路１０６號2樓

周承良耳鼻喉科診所,25.0511697,121.5119449,臺北市大同區延平北路一段二十二號

張漢權內科診所,25.0526729,121.5139226,臺北市大同區重慶北路一段９２號

聖心婦家醫診所,25.0597941,121.5143158,臺北市大同區保安街1之1號(1樓)

中華民國防癆協會第一胸腔病防治所,25.0630996,121.5156557,臺北市大同區民權西路一○四號二樓

周皮膚科診所,25.0511697,121.5119449,臺北市大同區延平北路一段二十六號

延平耳鼻喉科診所,25.0588131,121.5137056,臺北市大同區重慶北路二段二三五之四號一樓

台北聖仁皮膚科診所,25.0531772,121.5187728,臺北市大同區南京西路71號2樓

黃隆慶婦產科診所,25.0582758,121.5131217,臺北市大同區歸綏街181號2樓之1

廣安診所,25.0689522,121.5161218,臺北市大同區大龍街１７７巷３號

羅志弘診所,25.0674448,121.5139488,臺北市大同區重慶北路三段１１５號

夏立雲診所,25.0591505,121.5122566,臺北市大同區保安街４３號

趙黎海診所,25.0627243,121.5113064,臺北市大同區哈密街六十七號

建成診所,25.0503114,121.5191932,臺北市大同區長安西路82號

廣博診所,25.054909,121.5202504,臺北市大同區長安西路二二O巷五號

伊甸診所,25.052088,121.5171321,臺北市大同區承德路一段66號8樓

林仲皮膚科診所,25.0545828,121.5115252,臺北市大同區延平北路2段20號

和泰內科診所,25.053092,121.5098331,臺北市大同區南京西路406號8樓

羅源彰診所,25.0514479,121.515086,臺北市大同區長安西路137號

梅約內科診所,25.0503525,121.5189311,臺北市大同區長安西路88號1、2、3樓

慶吉診所,25.0701566,121.5140429,臺北市大同區重慶北路三段209號

澤康診所,25.066365,121.5139449,臺北市大同區重慶北路三段71號

建順診所,25.0596536,121.5128695,臺北市大同區甘州街51號

梅約診所,25.0503525,121.5189311,臺北市大同區長安西路88號1、2、3樓

夏凱納生活診所,25.0566598,121.5174404,臺北市大同區五原路15號、19號2樓

宜康復健科診所,25.0684366,121.5164312,臺北市大同區民族西路124號、124之1號及126號

南西司鉑診所,25.0525979,121.5198723,臺北市大同區南京西路30號10樓之1

永欣診所,25.0525979,121.5198723,臺北市大同區南京西路30號3樓之3

南西維格皮膚科診所,25.0524995,121.5200469,臺北市大同區南京西路22號3樓之1、3樓之2

祥恩耳鼻喉科診所,25.057289,121.516706,臺北市大同區民生西路195號

祐雙診所,25.0573313,121.5189534,臺北市大同區民生西路138號2樓

永茂醫美診所,25.0524995,121.5200469,臺北市大同區南京西路22號8樓

寧夏診所,25.0568765,121.5144404,臺北市大同區民生西路236號

大同耳鼻喉科診所,25.0710915,121.5135762,臺北市大同區重慶北路三段250之3、250之4號

紘成診所,25.0514929,121.5177989,臺北市大同區長安西路53巷7弄1之1號1樓

志勛皮膚科診所,25.0542294,121.5141169,臺北市大同區重慶北路二段2、4號(實際營業地址:1、2及3樓)

京站好萊塢診所,25.0491127,121.5158363,臺北市大同區鄭州路3號(1樓、2樓、3樓)

夢工場整形醫美診所,25.050669,121.516748,臺北市大同區承德路一段32號5樓

朵薇診所,25.053927,121.513958,臺北市大同區南京西路288號3樓之9、3樓之10、3樓之11

新旅程復健科診所,25.0636155,121.5118262,臺北市大同區民權西路237之7號(實際營業樓層:1樓、2樓)及237之9號(實際營業樓層:1樓、2樓)

佑佳內科診所,25.0597105,121.5179986,臺北市大同區承德路2段142號1樓及2樓

喜聖診所,25.052128,121.5116764,臺北市大同區長安西路235號(1樓)、237號(1樓)、239號2樓之1、239號2樓之2

賢福診所,25.0627861,121.5157139,臺北市大同區民權西路148號2樓

泉源診所,25.0720651,121.5189724,臺北市大同區庫倫街51之5號(1樓)

牧人所身心醫學診所,25.0725349,121.5184916,臺北市大同區承德路3段232號1樓

圓山診所,25.0721497,121.5144821,臺北市大同區酒泉街131號(1樓)

秀冠植髮診所,25.0529316,121.5117107,臺北市大同區延平北路1段110號2樓

千暘診所,25.0627494,121.5121465,臺北市大同區民權西路268號2樓、2樓之1、2樓之3

聖方診所,25.0523477,121.5136827,臺北市大同區長安西路177巷2號(1樓、2樓、3樓)

美平方健康美學診所,25.0503329,121.51099,臺北市大同區鄭州路119號2樓之1

悅昇診所,25.060238,121.5199715,臺北市大同區錦西街50之1號(1樓)

妍植國際醫美診所,25.0527103,121.5193898,臺北市大同區南京西路44號(1、2、3樓)

玉妍美醫美診所,25.0620488,121.5232758,臺北市中山區中山北路2段145號(1樓、2樓)

薇光御境美學診所,25.0811231,121.5603278,臺北市中山區樂群二路265巷40號(1、2樓)、42號(1、2樓)

沐慕身心診所,25.0536142,121.5307957,臺北市中山區四平街20號5樓

泓采診所,25.0605731,121.5375873,臺北市中山區建國北路2段137號1樓

晨昕診所,25.0600615,121.5439346,臺北市中山區復興北路350號3樓

大直光澤診所,25.0821445,121.554461,臺北市中山區敬業二路88號(1樓)

肌優谷大直萬豪診所,25.0807537,121.5607995,臺北市中山區樂群二路265巷16號(1、2樓)

禾康診所,25.0614004,121.5254317,臺北市中山區林森北路486號1樓

中山適康復健科診所,25.0605744,121.5406439,臺北市中山區龍江路268號(1樓)、270號2樓之1

大直佳醫美人診所,25.0829671,121.5590932,臺北市中山區樂群三路287號1樓

生技明生診所,25.052522,121.5228567,臺北市中山區中山北路1段72號2樓、2樓之1及2樓之2

台兒中山集英診所,25.0632262,121.5222809,臺北市中山區中山北路2段162號4樓及162號4樓之1

美迪大直婦產科診所,25.0848615,121.5540171,臺北市中山區北安路780號2樓

悅姿醫美診所,25.0631991,121.5254892,臺北市中山區林森北路526號(1、2樓)

極緻醫美診所,25.0518543,121.5314002,臺北市中山區南京東路2段96號5樓

振芝沃本診所,25.0592476,121.5438761,臺北市中山區復興北路290號2樓之1

德式診所,25.0668195,121.5250239,臺北市中山區德惠街9號4樓之9、4樓之10

晶緻美學診所,25.0524608,121.5219438,臺北市中山區南京西路1之1號4樓

美麗線時尚診所,25.051863,121.530772,臺北市中山區南京東路2段76號2樓

中美診所,25.0523713,121.5281453,臺北市中山區南京東路3段210號6樓

上質健康管理診所,25.0848679,121.5538124,臺北市中山區北安路780號6樓

瑞新時尚診所,25.0809222,121.5609373,臺北市中山區植福路308號9樓

初日診所,25.0581168,121.5363849,臺北市中山區民生東路2段163號3樓

萊佳形象美學診所,25.0495959,121.5437309,臺北市中山區復興北路48號2樓

中山元晨診所,25.052522,121.5228567,臺北市中山區中山北路1段145號(7樓)

美麗境界南京復興診所,25.0521498,121.5426043,臺北市中山區南京東路三段201號4樓之1

品漾診所,25.0597361,121.5329547,臺北市中山區松江路274號6樓

千代田八千代診所,25.0525227,121.5218121,臺北市中山區南京西路1號6樓之7之8及7樓之11之12

永育樂群診所,25.0795019,121.5592771,臺北市中山區樂群二路210之2號(1樓)

心湛美學診所,25.0518748,121.5299321,臺北市中山區南京東路2段60號12樓

柏克萊眼科診所,25.0797567,121.5517401,臺北市中山區明水路573號1樓

康倪美學診所,25.0528896,121.5402678,臺北市中山區龍江路106巷1號(1樓)及龍江路108號(1樓)、108號2樓、108號2樓之1

東方八千代診所,25.0524608,121.5219438,臺北市中山區南京西路1之1號8樓

芙美醫學診所,25.0662711,121.5225901,臺北市中山區中山北路3段45號2樓

中山淨妍醫美診所,25.0518601,121.5286374,臺北市中山區南京東路2段20號3樓

晶華美醫診所,25.0539149,121.5232467,臺北市中山區中山北路2段39巷2之2號2、3、4樓

健柏診所,25.0843493,121.5511359,臺北市中山區明水路688號(地下一層)、1樓、2樓

台北維德診所,25.0621411,121.5427606,臺北市中山區民權東路3段66號(1、2樓)

煥顏診所,25.0544541,121.5283614,臺北市中山區新生北路2段33巷9號1樓

羅浮婦女診所,25.049564,121.521914,臺北市中山區長安東路2段88號12樓、90號12樓

中山全美診所,25.0547085,121.5318671,臺北市中山區長春路152號(1樓、2樓)

得心身醫學台北總診所,25.0502518,121.5437555,臺北市中山區復興北路60號3樓之2

皙妍診所,25.0562048,121.5282426,臺北市中山區新生北路2段53之3號1樓

安和美醫美外科診所,25.0602381,121.5238479,臺北市中山區錦州街12號2樓之1

聚英尊爵視光眼科診所,25.0802838,121.5575826,臺北市中山區樂群二路173號1樓及187號2樓之1

豐秀整形外科診所,25.0563411,121.5224898,臺北市中山區中山北路2段52號2樓

元鼎診所,25.048801,121.525604,臺北市中山區長安東路2段184號2樓之1

維醫診所,25.0650263,121.5255365,臺北市中山區林森北路574號(1樓、2樓、3樓、4樓)

卓越健康診所,25.0536809,121.5438046,臺北市中山區復興北路166號4樓

璞蘊整形外科診所,25.0518701,121.5307688,臺北市中山區南京東路2段76號5樓

睦霖復健科診所,25.0597361,121.5329547,臺北市中山區松江路274號2樓

花漾國際美學診所,25.0627847,121.5290894,臺北市中山區民權東路2段21號3樓

恆美學中山診所,25.0518725,121.5243994,臺北市中山區南京東路1段46號7樓

新田身心診所,25.0597973,121.5439756,臺北市中山區復興北路344號2樓

偉俐民生診所,25.058551,121.5408204,臺北市中山區龍江路245號(1樓)

MyHair生髮植鬍診所,25.0597451,121.5328976,臺北市中山區松江路276號7樓

長安東診所,25.049564,121.521914,臺北市中山區長安東路2段50之2號1樓

力安醫學診所,25.080261,121.5604999,臺北市中山區樂群二路267號4樓

美朵整形外科診所,25.0533659,121.5228352,臺北市中山區中山北路2段31號5樓

莎斐爾整形外科診所,25.052306,121.528452,臺北市中山區南京東路2段11號7樓

翡翠診所,25.0476758,121.5307675,臺北市中山區松江路38巷33號1樓

銀河星辰醫美診所,25.0527429,121.521138,臺北市中山區南京西路5之1號5樓之1

綠葉親子診所,25.0648225,121.5240983,臺北市中山區農安街12之1號(1樓)

喜安診所,25.0479311,121.5442257,臺北市中山區新生北路1段66號3樓

吾霏醫美食驗室診所,25.0525928,121.5223658,臺北市中山區中山北路2段2號4樓

存奕美學診所,25.0562771,121.5225549,臺北市中山區中山北路2段52號3樓、3樓之1、3樓之2

欣妍診所,25.0478569,121.5323,臺北市中山區松江路46巷12號1樓

新英格蘭診所,25.0605071,121.5333637,臺北市中山區松江路396號1樓

詩宓診所,25.058198,121.5363115,臺北市中山區民生東路2段161號3樓

中崙國際診所,25.047355,121.542574,臺北市中山區八德路2段303號(1樓)、305號(1樓及2樓)、307號(1樓及2樓)

達康診所,25.061911,121.5395413,臺北市中山區龍江路298巷21號1樓

佳飛雅緻美學診所,25.0538647,121.5244905,臺北市中山區中山北路2段39巷18號(1、2樓)

中山顧家泌尿科診所,25.0596218,121.5231684,臺北市中山區中山北路2段99號2樓

采騰診所,25.049265,121.5437555,臺北市中山區復興北路38號6樓、40號6樓

南京粹究美學診所,25.0518549,121.5302263,臺北市中山區南京東路2段62號10樓

金蘋果美學診所,25.050855,121.5420511,臺北市中山區遼寧街107之2號1樓

晶緻玥禾診所,25.0524608,121.5219438,臺北市中山區南京西路1之1號2樓

君綺整形外科診所,25.052296,121.5333576,臺北市中山區南京東路2段111號2樓

大直佳恩診所,25.081959,121.548607,臺北市中山區北安路591號1樓及地下層

秀仁整形外科診所,25.0581828,121.5251264,臺北市中山區民生東路一段29號9樓之1

黃建榮婦產科診所,25.0518273,121.5318663,臺北市中山區南京東路二段100號11樓、11樓之1、11樓之2、11樓之3、11樓之4及11樓之5

美麗好診所,25.0519538,121.5242592,臺北市中山區南京東路一段42號3樓

法緹美學時尚診所,25.0504072,121.5251449,臺北市中山區林森北路109號(實際營業地址：3樓)

希望美醫診所,25.0522219,121.5217622,臺北市中山區南京西路8號8樓

彥靚診所,25.0497157,121.5331417,臺北市中山區松江路75之1號3樓

四季和安婦幼診所,25.0607535,121.5254315,臺北市中山區林森北路452號地下1樓、458號及458號3樓、460號及460號2樓、錦州街23巷3號3樓

心禾診所,25.0513843,121.5437872,臺北市中山區復興北路92號11樓之1

創興診所,25.0608676,121.543924,臺北市中山區復興北路378號地下二樓

景?復健科診所,25.0824638,121.5487516,臺北市中山區北安路607號、607之1號、595巷1號地下一層

固?診所,25.082687,121.548768,臺北市中山區北安路613號、595巷1號地下一層

鈺璽診所,25.051847,121.5336349,臺北市中山區南京東路二段132號4樓

粹究美學診所,25.0518412,121.5288218,臺北市中山區 南京東路2段20號2樓

上直診所,25.079389,121.546461,臺北市中山區北安路458巷41弄49號

馨美診所,25.05764,121.523078,臺北市中山區中山北路二段77之1號2樓

育仁診所,25.060192,121.5354988,臺北市中山區錦州街286號

高地植髮家診所,25.0522079,121.539212,臺北市中山區南京東路三段91號2樓

好日子診所,25.0637886,121.5234341,臺北市中山區中山北路二段183巷3之3號

詹益偉耳鼻喉科診所,25.08253,121.548759,臺北市中山區北安路611號

振芝心身醫學診所,25.0587951,121.543881,臺北市中山區復興北路282號2樓

麗安耳鼻喉科診所,25.0605537,121.5410161,臺北市中山區龍江路289號

禾宇復健科診所,25.0661411,121.5377924,臺北市中山區龍江路356巷79號

永暉診所,25.066504,121.5255772,臺北市中山區林森北路612號3樓、614號3樓

柏安診所,25.048304,121.5344129,臺北市中山區長安東路二段88號10樓及90號10樓

玉山診所,25.0604586,121.5342898,臺北市中山區錦州街251號(實際營業:二層)

巴黎國際長春診所,25.062118,121.5433251,臺北市中山區民權東路3段78號(實際營業地址:一層、二層)

洛桑醫學診所,25.0832017,121.5533737,臺北市中山區敬業一路128巷28號4樓

送子鳥11診所,25.080502,121.5584723,臺北市中山區樂群二路187號1樓、189號1樓、189號2樓、189號2樓之1

南西好萊塢診所,25.0519723,121.5237208,臺北市中山區南京東路一段24號3樓

由麗美型診所,25.0601414,121.5358916,臺北市中山區錦州街296號

生基婦產科診所,25.0482731,121.5354121,臺北市中山區長安東路二段108號2樓、2樓之1、2樓之2、2樓之3、2樓之4

南西光澤診所,25.0519494,121.5237059,臺北市中山區南京東路一段24號7樓

杰膚美診所,25.049699,121.5437453,臺北市中山區復興北路50號2樓

醫髮診所,25.0474407,121.5441513,臺北市中山區復興南路1段36之9號9樓、36之10號9樓

丹朵醫學診所,25.0556037,121.523495,臺北市中山區長春路3巷13、15號

佑昇診所,25.049564,121.521914,臺北市中山區長安東路2段88號8樓、90號8樓

又喜明眼科診所,25.080786,121.548568,臺北市中山區北安路572號(實際營業樓層1樓、2樓)

澤林毛髮診所,25.0483372,121.5338652,臺北市中山區長安東路二段78號6樓

越診所,25.0523055,121.5292421,臺北市中山區南京東路2段37號(1樓、2樓)、39號(1樓、2樓)、41巷2號(1樓、2樓)、6號(1樓、2樓)、8號(1樓、2樓)、8之1號(1樓、2樓)

魏嘉宏皮膚科診所,25.0619729,121.5431066,臺北市中山區民權東路三段72號(實際營業:一層、二層)

美麗晶華診所,25.058401,121.523121,臺北市中山區中山北路二段81之2號(實際營業樓層:一層、二層、三層)

葛萊美診所,25.0518864,121.5290448,臺北市中山區南京東路二段26號2樓、3樓、4樓

南京愛爾麗診所,25.0518001,121.5320013,臺北市中山區南京東路二段100號2樓

孕醫診所,25.0604699,121.5328567,臺北市中山區松江路318號2樓

虎林診所,25.0618768,121.5235343,臺北市中山區中山北路2段137巷1號5樓之26

李宜霖診所,25.0806297,121.5610988,臺北市中山區植福路296號、298號、308號3樓之5

民生展欣眼科診所,25.0574171,121.5437078,臺北市中山區民生東路三段92號

麗星診所,25.0605366,121.5375571,臺北市中山區建國北路二段135號7樓

進安身心診所,25.082043,121.548621,臺北市中山區北安路593號、593號地下

名瑿醫美診所,25.0598613,121.5329503,臺北市中山區松江路276號3樓

全人健康診所,25.0659281,121.5220624,臺北市中山區中山北路三段38號2樓

瑞醫時尚醫美診所,25.0535077,121.5437491,臺北市中山區復興北路164號3樓

賦真妍皮膚專科診所,25.0474465,121.5428068,臺北市中山區八德路2段315號(1樓及2樓)、317號(1樓及2樓)、319號(1樓及2樓)

元和雅整形外科診所,25.0530335,121.5332594,臺北市中山區松江路125號2樓、2樓之1

明錦生髮植髮診所,25.0522472,121.5305805,臺北市中山區南京東路二路62號7樓

AR進階鼻美學時尚診所,25.051887,121.5288485,臺北市中山區南京東路二段20號7樓之1至之5

繼承婦產科診所,25.0598613,121.5329503,臺北市中山區松江路276號5樓及5樓之1

晨曦生活診所,25.0541329,121.5333496,臺北市中山區松江路131之3號

中山璀璨診所,25.0526741,121.521433,臺北市中山區南京西路1之2號（實際營業地址：五層）

金時診所,25.0817608,121.5531421,臺北市中山區敬業二路69巷20號1樓

台北佐登微爾醫美診所,25.0628576,121.539393,臺北市中山區民權東路1段48號(1樓、2樓、2樓之1)、50號(1樓)

龍江固?診所,25.0661331,121.5408497,臺北市中山區龍江路360號1樓

欣莘時尚美學診所,25.048801,121.525604,臺北市中山區長安東路2段63號2樓、63號2樓之1

?新診所,25.064324,121.5365628,臺北市中山區建國北路三段42號5樓、6樓

肌優谷診所,25.0406854,121.5436421,臺北市中山區復興南路一段三十四號二樓

鄭紹隆整形外科診所,25.0521951,121.5253519,臺北市中山區南京東路一段二十四號五樓

民生承安診所,25.0573857,121.5434991,臺北市中山區民生東路3段90號1樓、2樓

萌髮診所,25.0523129,121.537779,臺北市中山區南京東路三段21號8樓

李久恆整形外科診所,25.0520545,121.5228988,臺北市中山區南京東路一段2號6樓

雅得麗生活診所,25.0534074,121.5228489,臺北市中山區中山北路二段33號3樓

青山診所,25.0601629,121.525422,臺北市中山區林森北路432號2樓之3

春泉診所,25.0582852,121.5246901,臺北市中山區民生東路一段25號2樓

宇康復健科診所,25.0544239,121.542664,臺北市中山區長春路368號2樓

明誠診所,25.0600344,121.5431882,臺北市中山區錦州街446號

微風整形外科診所,25.0452041,121.5436508,臺北市中山區復興南路一段52號

至誠整形外科診所,25.0530346,121.5351839,臺北市中山區伊通街87巷3號

澄心診所,25.0574884,121.522613,臺北市中山區中山北路二段82號2樓

高固?診所,25.082687,121.548768,臺北市中山區北安路613號、595巷1號地下一層

宏仁診所,25.0486327,121.5307873,臺北市中山區長安東路二段17號

莊宇龍診所,25.08373,121.549022,臺北市中山區北安路637號

創健診所,25.0608676,121.543924,臺北市中山區復興北路378號地下一層

長春耳鼻喉科診所,25.0578233,121.5311877,臺北市中山區民生東路二段110號

采醫漾麗診所,25.064395,121.5254515,臺北市中山區林森北路556號2樓

魅力必緹診所,25.068247,121.5231709,臺北市中山區中山北路三段57號2樓

英爵醫美診所,25.0795314,121.5561574,臺北市中山區敬業三路153號及155號

綺麗嘉美型診所,25.0605578,121.5333647,臺北市中山區松江路338號(實際營業樓層:2、3樓)

旭恩復健科診所,25.0493162,121.5437528,臺北市中山區復興北路38號2樓

楊菘宇整形外科診所,25.0525721,121.5223384,臺北市中山區中山北路二段2號5樓

愛鄰診所,25.0796785,121.5460818,臺北市中山區北安路520之1號

佳禾骨科診所,25.0575681,121.5211421,臺北市中山區民生西路54號3樓

思雲診所,25.0616425,121.5238508,臺北市中山區中山北路二段137巷10號、地下室

怡仁診所,25.052522,121.5228567,臺北市中山區中山北路1段82號5樓

四季花妍整形診所,25.054799,121.5236267,臺北市中山區長春路16號5樓

星光整形外科診所,25.051807,121.5273834,臺北市中山區南京東路一段138號3樓

黃偉俐診所,25.0497733,121.5230089,臺北市中山區天津街37號2樓

黃雅芬兒童心智診所,25.0527429,121.521138,臺北市中山區南京西路5之1號12樓之1

中山民權王耳鼻喉科診所,25.0633405,121.5222607,臺北市中山區中山北路二段166號之2

信安診所,25.0576674,121.5219274,臺北市中山區民生西路24號3樓

興安診所,25.0573857,121.5434991,臺北市中山區民生東路3段90號2樓、9 0號2樓之3

恆麗美型診所,25.0599177,121.5335406,臺北市中山區松江路273號3樓

聚英視光眼科診所,25.0619975,121.5421699,臺北市中山區民權東路3段54、56號及56號4樓之1

農安診所,25.0647653,121.5284609,臺北市中山區農安街62號

瀚仕診所,25.0648154,121.5334936,臺北市中山區松江路369號2樓

京硯皮膚科診所,25.0545913,121.5375352,臺北市中山區長春路210號1樓、212號(1樓)、212之1號(1樓)、212之2號(1樓)

杏慈診所,25.061987,121.5350233,臺北市中山區民權東路二段152巷2之1號

微煦心靈診所,25.0539095,121.5234885,臺北市中山區中山北路二段39巷6號2樓之1

慶生診所,25.0645842,121.5257974,臺北市中山區林森北路561號2樓之7及之8

曼都整形外科診所,25.0517741,121.5310315,臺北市中山區南京東路2段76號7樓

施宏男復健科診所,25.0549882,121.5328354,臺北市中山區松江路158號3樓、3樓之1

長安診所,25.0470832,121.5412407,臺北市中山區八德路2段259號（1樓、2樓）

康心美婦診所,25.064863,121.5244136,臺北市中山區農安街14號2樓、雙城街17之4號2樓

哲民診所,25.065891,121.5399356,臺北市中山區龍江路356巷24號

群英楊麗珍黃景昱皮膚科診所,25.0519944,121.5239689,臺北市中山區南京東路一段36號3樓

美無極美學診所,25.080293,121.5552073,臺北市中山區樂群二路103號、105號

達特琳醫美診所,25.0521105,121.5423538,臺北市中山區南京東路三段195號3樓

耘康復健科診所,25.0616446,121.543564,臺北市中山區復興北路402巷8弄2號

元林診所,25.0611164,121.5305551,臺北市中山區吉林路239號3樓、239號3樓之1

晴光診所,25.0642894,121.5254986,臺北市中山區林森北路556號

喜悅健康診所,25.0544008,121.5403996,臺北市中山區龍江路152號地下一層、152號地下一層之2

安康復健科診所,25.048712,121.5327217,臺北市中山區松江路54號2樓

聖和骨外科診所,25.0647008,121.5320055,臺北市中山區農安街138之1號、140號

陳博光教授診所,25.0485946,121.5305251,臺北市中山區長安東路二段1號1樓、2樓

雙連婦產科小兒科診所,25.0576741,121.52181,臺北市中山區民生西路30號4樓

榮星診所,25.0606057,121.5406317,臺北市中山區龍江路272號 (實際營業地址:1樓、地下一層)及274號 (實際營業地址:1樓)  

好美醫美診所,25.0526129,121.521369,臺北市中山區南京西路5之1號6樓

惟?診所,25.0821734,121.5482884,臺北市中山區北安路595巷1號地下一層

優視眼科診所,25.0579079,121.5240759,臺北市中山區民生東路一段30號2樓

臺北市立聯合醫院附設中山門診部,25.0643857,121.5336551,臺北市中山區松江路３６７號１樓

國防部醫務組診所,25.0833822,121.5425245,臺北市中山區北安路409號

長榮海運股份有限公司醫務室,25.0576341,121.5341734,臺北市中山區民生東路二段１６６號７樓

生泉婦產科診所,25.0579151,121.524257,臺北市中山區民生東路一段30號3、4、5樓

陳?輝診所,25.0581019,121.531288,臺北市中山區民生東路二段１０３號

曾婦產科診所,25.0486072,121.5306494,臺北市中山區長安東路二段11之1號〈實際營業場所在一樓〉

陳家庭醫學科診所,25.0634736,121.531077,臺北市中山區吉林路３１５巷１８號

黃中豪婦產科診所,25.0577593,121.5303372,臺北市中山區吉林路１３１號２Ｆ

賴國良婦產科診所,25.0603771,121.5221329,臺北市中山區錦西街１之５號

李堯?內兒科診所,25.0628451,121.5291191,臺北市中山區民權東路二段２３號

趙素芳婦產科診所,25.0484027,121.5375491,臺北市中山區長安東路二段一七八之六號二樓

木生婦幼診所,25.0483088,121.5345306,臺北市中山區長安東路二段90號1-4樓、88號4樓

富生婦產科診所,25.0588201,121.5303615,臺北市中山區吉林路１５７號

葉小兒科診所,25.054887,121.538813,臺北市中山區長春路２２７號

柏泉內科小兒科診所,25.0818547,121.5476181,臺北市中山區北安路５９５巷２０弄５號

歐婦產科診所,25.0578382,121.5305175,臺北市中山區民生東路二段８０號

楊光榮嗓音耳鼻喉科診所,25.0623309,121.530808,臺北市中山區民權東路二段56號(實際開業地址：1樓及2樓)

王三郎婦產科診所,25.0633405,121.5222607,臺北市中山區中山北路二段166號之2

吳輝明婦產科診所,25.0548122,121.5265707,臺北市中山區長春路７８號２Ｆ

李義男婦產科診所,25.0573631,121.5230488,臺北市中山區中山北路二段７１號４樓

輝雄診所,25.0615088,121.5300898,臺北市中山區吉林路300號1、2、3、4樓302號 1、2、3、4樓

林錦祥耳鼻喉科診所,25.0644963,121.5412329,臺北市中山區五常街９１號１樓

周賢章耳鼻喉科診所,25.0612437,121.5209305,臺北市中山區天祥路２６號

楊錦標神經科診所,25.057679,121.5219454,臺北市中山區民生西路24號5樓

北安聯合診所,25.081027,121.548298,臺北市中山區北安路569之2號 569之3號  569之4號 569之1號二 樓 569之2號二 樓 569之3號二 樓 569之4號二 樓  

陳世澤內科診所,25.0609826,121.5406557,臺北市中山區龍江路２８４－１號

宗北內科診所,25.0576678,121.5219287,臺北市中山區民生西路24號2樓

世珍婦產診所,25.0500444,121.5404197,臺北市中山區朱崙街四十六號

中山實美整形外科診所,25.0601517,121.5226648,臺北市中山區中山北路二段１０６之２號４樓

東方整形外科診所,25.0508652,121.521874,臺北市中山區中山北路一段１２２號２樓

德美診所,25.0796593,121.5428669,臺北市中山區北安路五九六號一樓

英政耳鼻喉科診所,25.0485921,121.5407869,臺北市中山區長安東路二段１６９之9號

蔡仁雨皮膚科診所,25.0516911,121.5403417,臺北市中山區南京東路三段１１８號３樓

瑞光眼科診所,25.052423,121.5242417,臺北市中山區南京東路一段25號、25號2樓

鄭志誠小兒科診所,25.0580554,121.5255237,臺北市中山區民生東路一段八號

黃大倫婦產科診所,25.0484123,121.5369391,臺北市中山區長安東路二段一三一之三號一樓二樓

潘外科內科診所,25.0549202,121.5313339,臺北市中山區長春路135之1號2樓

王俊民皮膚科診所,25.0583949,121.5332105,臺北市中山區松江路一二七之一號三樓

蔡國賢耳鼻喉科診所,25.0482694,121.5353877,臺北市中山區長安東路二段108之2號(1樓)

全安診所,25.0610945,121.5209464,臺北市中山區天祥路20號

登彩整形外科診所,25.0567701,121.5221981,臺北市中山區中山北路二段62巷5號1樓

光華家醫科診所,25.049564,121.521914,臺北市中山區長安東路2段33號1樓

劉雲祥診所,25.0592395,121.5405937,臺北市中山區龍江路２４６號

晏安診所,25.0484076,121.5429385,臺北市中山區長安東路二段１８９號之６

劉宣彥診所,25.0514067,121.5347865,臺北市中山區伊通街十七之四號

池明仁整形外科診所,25.0582028,121.5238142,臺北市中山區民生東路一段13號5樓

芯慈耳鼻喉科診所,25.0545123,121.5426208,臺北市中山區長春路364號

陳正熹耳鼻喉科診所,25.0640822,121.5232788,臺北市中山區雙城街１０巷１８號１樓

如田診所,25.0579557,121.5325847,臺北市中山區民生東路二段一二八號一樓

鼎廬診所,25.061917,121.5249922,臺北市中山區中山北路二段１３７巷３７號１樓

蔡瓊瑤眼科診所,25.0593816,121.5410652,臺北市中山區龍江路２７１巷６號

長春眼科聯合診所,25.0545099,121.5364688,臺北市中山區建國北路二段６６號

德容聯合診所,25.059889,121.5303846,臺北市中山區吉林路197號、197號2樓

王宗前診所,25.0597219,121.5300445,臺北市中山區吉林路２５０號

大直診所,25.081997,121.5483261,臺北市中山區北安路595巷2弄2號(1樓及地下層)、6號1樓

正恩耳鼻喉科診所,25.0603445,121.53861,臺北市中山區錦州街321號

龍江小兒科診所,25.0552348,121.5407302,臺北市中山區龍江路１８１－１號１樓

晉宏診所,25.0658617,121.5416857,臺北市中山區復興北路５１４巷５６號１樓

大直復健科診所,25.0836576,121.5499025,臺北市中山區北安路630巷25弄16號

寧康聯合診所,25.0564722,121.5406726,臺北市中山區龍江路209巷6之1號

宏林診所,25.0577417,121.5223787,臺北市中山區民生西路6號、6號2樓、6號2樓之1

吳振力診所,25.0547596,121.5362689,臺北市中山區長春路三０九號

慶恩小兒科診所,25.0581536,121.5302038,臺北市中山區吉林路一一七號

敦北諾貝爾診所,25.0484076,121.5429385,臺北市中山區長安東路二段189號2樓之2

南京小岩井診所,25.052654,121.5468459,臺北市松山區南京東路3段303巷8弄6號1樓

嬌妮美診所,25.0517827,121.5575876,臺北市松山區南京東路5段3號9樓

佳利安診所,25.0517827,121.5575876,臺北市松山區南京東路3段305號8樓

安德森整形外科診所,25.060227,121.5446271,臺北市松山區復興北路337號3樓

立健美診所,25.0618134,121.5461211,臺北市松山區民權東路3段130號1樓

宸曜診所,25.054444,121.5504691,臺北市松山區敦化北路155巷8號1、2樓

芯橙診所,25.049947,121.544284,臺北市松山區復興北路33號6樓

守葳診所,25.0517827,121.5575876,臺北市松山區南京東路3段256巷46號1、2樓

馥之美診所,25.0536922,121.5457712,臺北市松山區慶城街24之1號5樓

蘭瑞診所,25.0463858,121.5494894,臺北市松山區敦化南路1段25號3樓

君綺國際診所,25.0463662,121.5492971,臺北市松山區敦化南路1段25號2樓

麗得醫美整形外科診所,25.0518217,121.5574544,臺北市松山區南京東路5段1號5樓

南京安澐診所,25.0544256,121.5650519,臺北市松山區健康路303號(1樓)

韓后國際健康醫美診所,25.0508349,121.5443306,臺北市松山區復興北路69號10樓

微醫未來美學診所,25.0513046,121.5632848,臺北市松山區南京東路5段166、168號11樓

畇力診所,25.060923,121.564603,臺北市松山區富錦街512號1樓

姿晨健康美學診所,25.0579964,121.5444505,臺北市松山區民生東路3段101號2樓、2樓之1及2樓之2

尚安診所,25.0596758,121.5444275,臺北市松山區復興北路331號4樓

長庚醫療財團法人長庚診所,25.0563135,121.5464214,臺北市松山區民生東路三段130巷9號2、3、4樓

李士虹皮膚科診所,25.0620546,121.5444437,臺北市松山區民權東路3段136號3樓之1

富樂診所,25.0547646,121.5494174,臺北市松山區敦化北路167號1樓A區

光一診所,25.0465607,121.5532226,臺北市松山區延吉街22巷1號1樓

景賀醫美診所,25.0523351,121.5572186,臺北市松山區光復北路125號1樓

泛亞皮膚科整形外科診所,25.0500341,121.5442703,臺北市松山區復興北路35號4樓

?眼明眼科診所,25.052019,121.546978,臺北市松山區南京東路三段309號2樓

松原復健診所,25.0551967,121.5555173,臺北市松山區光復北路206號

佳德診所,25.0528417,121.5527813,臺北市松山區健康路18號、18之1號1樓及地下1層

安德復復健專科診所,25.0585565,121.55534,臺北市松山區光復北路181號地下二層

景賀診所,25.0587907,121.5592798,臺北市松山區民生東路5段85號

弘光耳鼻喉科診所,25.058252,121.553279,臺北市松山區民生東路四段117號

蘋果樹醫美診所,25.0520187,121.5469781,臺北市松山區南京東路三段309號3樓

何兆芬健康診所,25.0519891,121.5509295,臺北市松山區南京東路四段47號2樓

金贊診所,25.0514457,121.5539402,臺北市松山區南京東路四段66號2樓、寧安街68巷25號2樓

生昇復健專科診所,25.0558938,121.5634132,臺北市松山區三民路39號

美人魚時尚婦產科診所,25.0519493,121.5475002,臺北市松山區南京東路三段331號9樓

聯青診所,25.0513858,121.5531382,臺北市松山區南京東路4段16號5樓

立悅皮膚科診所,25.0512896,121.5598367,臺北市松山區南京東路五段46號4樓

鈞賀診所,25.0607013,121.5624036,臺北市松山區富錦街462號

美仕媞時尚醫美診所,25.0610008,121.5477426,臺北市松山區敦化北路244巷33號1樓

新心診所,25.0502133,121.5603301,臺北市松山區光復北路11巷63號

李政洋身心診所,25.0565204,121.5639373,臺北市松山區三民路84號

佳家美學診所,25.053686,121.5443,臺北市松山區復興北路145號3樓

松山大愛眼科診所,25.051596,121.565594,臺北市松山區南京東路五段269號1、2、3樓

臻品絕色診所,25.0562288,121.5454609,臺北市松山區興安街157號

極光美學診所,25.0520627,121.5505823,臺北市松山區南京東路四段25號2樓

尚志塾遠絡診所,25.051283,121.556704,臺北市松山區南京東路四段164號3樓之1 

?悅診所,25.0516627,121.5627237,臺北市松山區南京東路5段163之1號(1、2樓)

延壽耳鼻喉科診所,25.0570975,121.5651399,臺北市松山區延壽街113號

髮王植髮診所,25.0533915,121.5450706,臺北市松山區慶城街21之3號3樓

達特邱診所,25.0477751,121.5454141,臺北市松山區八德路二段350號2樓

澄東耳鼻喉科診所,25.0558234,121.5635727,臺北市松山區三民路37號

W頂尖醫美診所,25.0516038,121.5451729,臺北市松山區南京東路三段270號4樓

悠適復健科診所,25.0501018,121.5602783,臺北市松山區光復北路11巷65號1樓、67號1樓

欣悅超美診所,25.0510506,121.544235,臺北市松山區復興北路73號3樓

聖光眼科診所,25.0518017,121.5563892,臺北市松山區南京東路四段181、183號

康活診所,25.0598244,121.5444186,臺北市松山區復興北路333號5樓

駿昂耳鼻喉科診所,25.0483727,121.5464319,臺北市松山區八德路2段395號1樓及397號1樓

樂康診所,25.0482365,121.5569255,臺北市松山區八德路三段 221之1號

佑家診所,25.0482471,121.5571364,臺北市松山區八德路三段233號

安兒康小兒專科診所,25.0537434,121.5485637,臺北市松山區敦化北路116號、118號、118號2樓

南京光澤診所,25.0512569,121.5627442,臺北市松山區南京東路五段154號2樓、156號2樓

原邑診所,25.0550891,121.5681571,臺北市松山區健康路325巷6弄21號

妍棠美學診所,25.0537034,121.5512808,臺北市松山區敦化北路145巷49號

傑尼斯時尚醫美整形外科診所,25.051002,121.5657026,臺北市松山區南京東路五段230號3樓之7、3樓之8

泰安親親家庭診所,25.0508774,121.5580243,臺北市松山區光復北路97號

恩緹悠活時尚診所,25.0536922,121.5457712,臺北市松山區慶城街24號4樓

弘宇診所,25.0619656,121.5479179,臺北市松山區民權東路3段160巷2之6號(1樓)

佑達骨科診所,25.0518371,121.5543299,臺北市松山區南京東路4段95號1樓

朱家庭醫學科診所,25.0455985,121.5521416,臺北市松山區八德路3段12巷57弄39之1號1樓

康健診所,25.0468097,121.5535908,臺北市松山區延吉街9之4號(1樓)及11號2樓

吉祥預防醫學診所,25.0525879,121.5472609,臺北市松山區南京東路三段303巷6弄9號1樓

名悅時尚診所,25.0517827,121.5575876,臺北市松山區南京東路3段259號9樓

宥全診所,25.058766,121.565008,臺北市松山區民生東路5段216號1樓

依定美時尚診所,25.0480934,121.5496295,臺北市松山區八德路3段2號2樓

聯欣診所,25.0513858,121.5531382,臺北市松山區南京東路4段16號5樓

全煜耳鼻喉科診所,25.0510506,121.544235,臺北市松山區復興北路73號2樓

瑞麗嘉健康美學慶中診所,25.0517827,121.5575876,臺北市松山區南京東路3段259號5樓

禾玥醫學診所,25.0517827,121.5575876,臺北市松山區南京東路3段269巷6號1樓

麥茵茲美形診所,25.0517245,121.5595642,臺北市松山區南京東路5段71號2樓之3、2樓之4及3樓之5

恆美學診所,25.0514933,121.5537291,臺北市松山區南京東路4段56號2樓

髮立現診所,25.0593603,121.5459494,臺北市松山區民生東路3段113巷6弄3號1樓

耀渼麗醫學美容診所,25.0517827,121.5575876,臺北市松山區南京東路3段259號4樓

佳思優醫美整形診所,25.0504507,121.5485399,臺北市松山區敦化北路8號1樓(1、2層)

臺北市立聯合醫院附設松山門診部,25.0496778,121.5773136,臺北市松山區八德路4段694號(1樓)

交通部民用航空局航空醫務中心,25.0635684,121.5572775,臺北市松山區敦化北路405巷123弄10號

榮恩耳鼻喉科小兒科聯合診所,25.0511463,121.5664497,臺北市松山區南京東路五段２５８號

林聰賢婦產科診所,25.0493495,121.5677794,臺北市松山區八德路四段３４５號２Ｆ

劉內兒科診所,25.058492,121.5621561,臺北市松山區民生東路五段148號、148之1號

趙耳鼻喉科診所,25.0502069,121.5753548,臺北市松山區八德路四段６４９號一樓

康明哲小兒科內科診所,25.0606612,121.5641039,臺北市松山區三民路１３６巷１５號

松山內兒科診所,25.0490717,121.5650851,臺北市松山區八德路四段２５５號

王俊彰耳鼻喉科診所,25.0584542,121.5559419,臺北市松山區民生東路五段１７號

林志聖眼科診所,25.0606859,121.563413,臺北市松山區三民路１４０號

張芳杰內兒科診所,25.0581589,121.5617476,臺北市松山區民生東路五段１３８巷７號

高國隆婦產科診所,25.0490714,121.5652132,臺北市松山區八德路四段257號2樓

陳大昕耳鼻喉科診所,25.0484012,121.5608082,臺北市松山區八德路四段１００號

吳耳鼻喉科診所,25.0580615,121.5630693,臺北市松山區三民路１１３巷１－１號

陳炳堅內科診所,25.056826,121.560329,臺北市松山區延壽街３２７號

康瑞耳鼻喉科診所,25.0479657,121.5549519,臺北市松山區八德路三段154號1樓

吳慶南內科診所,25.0585503,121.5616507,臺北市松山區民生東路五段１３８巷１號

華南小兒科診所,25.0460006,121.5526904,臺北市松山區延吉街３０巷１５號

江建中診所,25.0492066,121.5659324,臺北市松山區八德路4段285號1樓

尚群眼科診所,25.0518532,121.5586416,臺北市松山區南京東路五段４３號１樓

民生翁耳鼻喉科診所,25.0583391,121.5590738,臺北市松山區民生東路五段78號1樓

江崇萍小兒科診所,25.0523388,121.5643544,臺北市松山區南京東路五段２５１巷２４弄２７號

安德聯合診所,25.0480759,121.551944,臺北市松山區八德路三段３４號４樓及１２樓

安成診所,25.0611222,121.5640367,臺北市松山區富錦街４９７號

美佳皮膚科診所,25.0479204,121.5553084,臺北市松山區八德路三段１６４號２樓

傅眼科診所,25.047923,121.5548001,臺北市松山區八德路三段156號3樓

王貞乃皮膚科診所,25.0568712,121.5525439,臺北市松山區民生東路四段80巷6弄7號

王躬仁診所,25.0600984,121.5606214,臺北市松山區新中街１２之３號１樓

車參薇小兒科診所,25.0481423,121.5562397,臺北市松山區八德路三段195號１樓

洪小兒科診所,25.0480887,121.5646853,臺北市松山區市民大道五段１６５號１樓

方一強眼科診所,25.058174,121.552371,臺北市松山區民生東路四段１０１號２樓

趙彥宇邱慧嫻皮膚科聯合診所,25.052626,121.544857,臺北市松山區慶城街8之1號3樓及8號3樓

京華皮膚科診所,25.048069,121.5574924,臺北市松山區八德路三段238號

英爵聯合診所,25.0517827,121.5575876,臺北市松山區南京東路3段331號2樓

閎新耳鼻喉科皮膚科聯合診所,25.0480562,121.5511626,臺北市松山區八德路三段20之2號

完全優整合醫學診所,25.0525829,121.5473448,臺北市松山區南京東路三段303巷6弄11號

日聖眼科診所,25.0598043,121.5603321,臺北市松山區新中街３５號

正風復健科診所,25.0527659,121.5571867,臺北市松山區光復北路133及135號1樓

大家好診所,25.0565565,121.5531009,臺北市松山區民生東路四段８０巷１１弄２號１樓

湘豐診所,25.053636,121.5494,臺北市松山區敦化北路１４１號５樓

蔡恭禮內兒科診所,25.0593624,121.5659984,臺北市松山區新東街28號之2

林忠志診所,25.0524924,121.5658521,臺北市松山區南京東路五段291巷20弄3之3號

王世興醫師診所,25.0504036,121.5777702,臺北市松山區八德路四段10號

詹前俊小兒科診所,25.0588966,121.5600439,臺北市松山區民生東路五段１０５號

周玄文診所,25.0601787,121.5476798,臺北市松山區民權東路三段１６０巷１９弄６號

余內科診所,25.0498846,121.5749513,臺北市松山區八德路四段６４６號

雷湘安皮膚科診所,25.0564932,121.5626364,臺北市松山區三民路43巷1號

張國華整形外科診所,25.0512633,121.5592325,臺北市松山區南京東路五段34號2樓

林永濤整形外科診所,25.048962,121.5580459,臺北市松山區光復北路７號７樓

安禾聯合診所,25.0621266,121.544137,臺北市松山區民權東路三段一七八號三樓

親親家庭診所,25.0515729,121.5678226,臺北市松山區南京東路五段347號

黎博彥診所,25.05881,121.565715,臺北市松山區民生東路五段230號

美麗優品時尚診所,25.0585264,121.5522074,臺北市松山區民生東路四段97巷2弄1號

宇恩復健科診所,25.0603967,121.5470564,臺北市松山區民權東路三段140巷15號3樓

正顏診所,25.0473062,121.546645,臺北市松山區八德路二段410巷12號

奧斯卡眼科診所,25.0470498,121.5492693,臺北市松山區敦化南路1段7號2樓及3樓之1

邱楠超診所,25.0467831,121.5533436,臺北市松山區延吉街20號1樓

祐腎內科診所,25.0514413,121.5534452,臺北市松山區南京東路四段50號8樓

介壽診所,25.055909,121.55541,臺北市松山區光復北路226號

聯安診所,25.0512497,121.5530169,臺北市松山區南京東路4段16號地下二樓

怡碩視光眼科診所,25.058846,121.5459656,臺北市松山區復興北路313巷28號

裕昇診所,25.058836,121.559725,臺北市松山區民生東路5段95號

永承診所,25.0541937,121.5503737,臺北市松山區敦化北路155巷9號地下一層

松山信合美眼科診所,25.0537212,121.5634466,臺北市松山區三民路      9號、9之3號、9之4號、9之5號、9之6號、9之8號

臺北市立聯合醫院附設大安門診部,25.0215769,121.544274,臺北市大安區辛亥路3段15號

國立台灣大學保健中心,25.0196172,121.5402519,臺北市大安區羅斯福路四段１號

信恩美醫診所,25.0342653,121.5263294,臺北市大安區信義路二段７２號４樓

張少萌婦產科診所,25.0335728,121.5515296,臺北市大安區信義路四段１９９巷２號４樓之１之２

劉耳鼻喉科診所,25.0285412,121.5447236,臺北市大安區復興南路2段151巷27號、27之1號

曹眼科診所,25.0249993,121.5441793,臺北市大安區和平東路二段２６９號２樓

忠孝眼科診所,25.041399,121.5468583,臺北市大安區忠孝東路四段１１２號６樓－７

董曉青眼科診所,25.0303334,121.5526376,臺北市大安區安和路二段69巷6號2樓

大安黃耳鼻喉科診所,25.02644,121.5332197,臺北市大安區和平東路3段234號

黃禎祥診所,25.0236945,121.5286041,臺北市大安區師大路７１號

陳秀鳳婦產科診所,25.0252481,121.5421167,臺北市大安區和平東路二段１９１號２樓

大安林內科診所,25.0345963,121.5492446,臺北市大安區敦化南路一段３２１號５樓

新鑫耳鼻喉科診所,25.0225862,121.5291233,臺北市大安區師大路１０５巷１３號１樓

陳志明診所,25.0249486,121.5456946,臺北市大安區和平東路二段３３７號

蔡國仁內兒科診所,25.0429245,121.5406243,臺北市大安區忠孝東路三段２１７巷４弄２１號

詹骨科診所,25.0337868,121.5449976,臺北市大安區信義路四段５３巷６號

吳坤光婦產科診所,25.0335335,121.545416,臺北市大安區信義路四段５９號

劉達昌眼科診所,25.0218798,121.5549022,臺北市大安區和平東路三段２３８號

林青穀家庭醫學科診所,25.044811,121.546073,臺北市大安區大安路1段2之1號

博全婦產科診所,25.0441505,121.5460826,臺北市大安區大安路一段18號、16巷1、1-1、3、3-1、5、5-1號2樓

鄭耳鼻喉科診所,25.0333473,121.5567736,臺北市大安區信義路四段３４１號

施崇仁耳鼻喉科診所,25.0251871,121.5452381,臺北市大安區和平東路二段３１１巷13號１Ｆ

林繼國診所,25.0424121,121.5391212,臺北市大安區忠孝東路三段２１７巷１弄１２號１樓

馬大勳婦產科診所,25.0397162,121.5498273,臺北市大安區安和路一段１１號２樓－１

頂好林耳鼻喉科診所,25.043517,121.5469253,臺北市大安區敦化南路一段１６０巷５０號

黃禎憲皮膚科診所,25.0236945,121.5286041,臺北市大安區師大路７1號2樓及７7號

大學眼科診所,25.0206671,121.5338691,臺北市大安區新生南路3段54之3號1樓、54巷2號2樓、54巷2號2樓之1

陳建銓耳鼻喉科診所,25.0255353,121.5522822,臺北市大安區樂利路９３號１Ｆ

張尚哲婦產科診所,25.0412378,121.5525952,臺北市大安區忠孝東路四段２１０號４Ｆ

李翔耳鼻喉科診所,25.025588,121.536115,臺北市大安區和平東路2段18之8號2Ｆ

霍天年整形外科診所,25.041442,121.543082,臺北市大安區忠孝東路四段一九一號六樓之一

葉明憲小兒科診所,25.021088,121.528109,臺北市大安區羅斯福路三段１９１號２Ｆ

張渝醫師診所,25.0221638,121.5496617,臺北市大安區基隆路二段２７０號１Ｆ

羅斯福診所,25.0191293,121.5302009,臺北市大安區羅斯福路3段253號2樓，2樓之1，2樓之3

啟誠聯合診所,25.0247302,121.5429344,臺北市大安區和平東路二段120號1樓、2樓、3樓、4樓

通化延吉診所,25.0348552,121.5551723,臺北市大安區信義路四段２６５巷３６號

林正宗婦產科診所,25.0242654,121.5513218,臺北市大安區和平東路三段100號2樓

蔣曉山整形外科診所,25.0424673,121.5484118,臺北市大安區敦化南路一段１９２號２樓

李婦產科診所,25.027636,121.522293,臺北市大安區羅斯福路2段41號8樓之1

經典整形外科診所,25.0413899,121.545906,臺北市大安區忠孝東路4段94之5號(6樓)

皇家診所,25.0196379,121.5296779,臺北市大安區羅斯福路三段２２７號１０樓

劉賢平婦產科診所,25.0383241,121.5554706,臺北市大安區延吉街１７５號２樓

景德耳鼻喉科診所,25.0252686,121.5421704,臺北市大安區和平東路二段１９１號

誼安診所,25.0378148,121.5536584,臺北市大安區仁愛路四段二五號三A

黃清浩耳鼻喉科診所,25.036182,121.5573667,臺北市大安區光復南路430號

忠孝大學眼科診所,25.0412749,121.5513186,臺北市大安區忠孝東路4段178號1樓、178號2樓、178之1號1樓、178之1號2樓

呂小兒科診所,25.0289221,121.5538635,臺北市大安區通化街二十四巷六號一樓

陳惠章婦產科家庭醫學科診所,25.0203177,121.5285068,臺北市大安區羅斯福路三段二六一號二樓

黃崇禮皮膚科診所,25.033156,121.543064,臺北市大安區信義路三段192-1號3樓

秋江外科診所,25.032853,121.52726,臺北市大安區信義路二段一七八號二樓

窈窕診所,25.0331733,121.543487,臺北市大安區復興南路2段6號4樓

適健復健科診所,25.0411455,121.550567,臺北市大安區忠孝東路4段166號8樓、9樓

家安復健科診所,25.024169,121.5483413,臺北市大安區敦化南路二段一六八及一七0號地下一樓

綺顏診所,25.0378148,121.5536584,臺北市大安區仁愛路四段一0九號二樓B室

蘇仁和耳鼻喉科診所,25.0374999,121.5513282,臺北市大安區安和路一段十一號四樓之一

游鴻儒皮膚科診所,25.0378148,121.5536584,臺北市大安區仁愛路四段一五一巷三六號二樓

薇妮斯整形外科診所,25.041329,121.54726,臺北市大安區忠孝東路4段120之12號12樓

儷人整形外科診所,25.0413474,121.5540705,臺北市大安區忠孝東路四段六十號五樓之一

尖端診所,25.024169,121.5483413,臺北市大安區敦化南路二段一六八號十一樓

滿意婦產科診所,25.0203177,121.5285068,臺北市大安區羅斯福路三段二七一號三樓及三樓之一

和平大愛眼科診所,25.026637,121.5286141,臺北市大安區和平東路一段六號二樓

宜德復健科診所,25.0184353,121.5584189,臺北市大安區和平東路三段二一0號

杏語心靈診所,25.034036,121.544113,臺北市大安區復興南路1段200號11樓

漂亮愛爾麗整形外科診所,25.0416095,121.5564369,臺北市大安區忠孝東路4段325號3樓

華漾皮膚專科診所,25.0303094,121.5260432,臺北市大安區金華街二四九號

鍾啟榮皮膚科診所,25.0406964,121.5485902,臺北市大安區敦化南路一段二OO號三樓之一

曾皮膚科診所,25.0340039,121.5285046,臺北市大安區信義路二段三十八號一樓

琳安診所,25.0329798,121.5498902,臺北市大安區信義路4段138號3樓、140號3樓

張國麟耳鼻喉科診所,25.0435198,121.5357977,臺北市大安區和平東路三段一四七號一樓

極緻皮膚專科診所,25.0421149,121.545409,臺北市大安區忠孝東路四段49巷2號7樓

大安春暉診所,25.0443684,121.5465448,臺北市大安區大安路一段一八O號二樓

許世賓婦產科診所,25.026541,121.5317921,臺北市大安區和平東路一段169號2、4樓，171號2樓

長松眼科診所,25.0393976,121.5460635,臺北市大安區大安路一段一二六巷一號

周大中婦產科診所,25.0308871,121.550009,臺北市大安區敦化南路二段四十六號二樓

貝拉整形外科診所,25.0329786,121.5521903,臺北市大安區安和路1段141巷6號 (實際營業地址:1樓)

慈民骨科診所,25.0369116,121.5558121,臺北市大安區延吉街233巷2號

尚行美皮膚專科診所,25.0394001,121.5573819,臺北市大安區光復南路288號2樓之5、4樓之3

知美整形外科診所,25.0416592,121.5528727,臺北市大安區忠孝東路4段221號6樓

大安耳鼻喉科診所,25.0280213,121.543745,臺北市大安區復興南路二段163號

藝林整形外科診所,25.0174029,121.531961,臺北市大安區羅斯福路3段309號4樓之2

光能身心診所,25.041844,121.544403,臺北市大安區忠孝東路四段15號8樓

亞立山大時尚整形診所,25.0417523,121.5483089,臺北市大安區忠孝東路4段107號3樓之1

安麗整形外科診所,25.034036,121.544113,臺北市大安區復興南路1段215號6樓

林慧雯婦產科診所,25.0412312,121.5526353,臺北市大安區忠孝東路4段210之1號2樓

哈利路亞曾英欽診所,25.0386606,121.5345798,臺北市大安區仁愛路3段29號地下室

全家聯合診所,25.0249114,121.5461913,臺北市大安區和平東路二段３５３號

沈德昌診所,25.0276689,121.5481416,臺北市大安區四維路１８９號１樓

優德診所,25.0401263,121.5549203,臺北市大安區延吉街１５３－２號５樓

安法診所,25.0289113,121.5492816,臺北市大安區敦化南路二段９７號２７樓

謝林診所,25.030117,121.5450242,臺北市大安區大安路2段21號

簡萬居耳鼻喉科診所,25.019698,121.529784,臺北市大安區辛亥路一段２８號

陳柏豪耳鼻喉科診所,25.0268211,121.523279,臺北市大安區和平東路一段１０號

王暉政眼科診所,25.021955,121.528119,臺北市大安區師大路１１０號１Ｆ

仁安診所,25.0253415,121.5413949,臺北市大安區和平東路二段一七五巷三十四號一樓

實美整形外科診所,25.033606,121.5455086,臺北市大安區信義路四段６３號１樓

萬通耳鼻喉科診所,25.0434248,121.5537603,臺北市大安區延吉街６４－２號１樓

誠品診所,25.0347528,121.5493138,臺北市大安區敦化南路一段３１７號

佳音診所,25.034036,121.544113,臺北市大安區復興南路1段261之3號1樓

蔡博庸整形外科診所,25.0416835,121.5531853,臺北市大安區忠孝東路四段231號7樓之1

同心婦產科診所,25.0359082,121.5454012,臺北市大安區東豐街２６號

新長安診所,25.0209523,121.5536818,臺北市大安區和平東路三段２２８巷３９號

陳瑞鵬婦產科診所,25.0334341,121.5505619,臺北市大安區信義路四段１７７號２樓

?安診所,25.0418719,121.541008,臺北市大安區忠孝東路3段243號3樓

李唯通診所,25.0198544,121.5536538,臺北市大安區安居街十九號

安居診所,25.02644,121.5332197,臺北市大安區和平東路3段252號

梁偉中整形外科診所,25.0413474,121.5540705,臺北市大安區忠孝東路四段一二四之四號五樓

延吉診所,25.0407626,121.5546565,臺北市大安區延吉街二四一巷二弄五號一樓

祥光診所,25.0417673,121.5381808,臺北市大安區忠孝東路三段八十六號十一樓之一

電眼美人診所,25.0418832,121.5408317,臺北市大安區忠孝東路三段239號3樓

微整形外科診所,25.04141,121.544,臺北市大安區忠孝東路4段2號7樓之8、7樓之9

佳醫美人診所,25.0375111,121.5478096,臺北市大安區仁愛路四段66號2樓

康婕婦產科診所,25.0406302,121.5565035,臺北市大安區光復南路240巷23號2樓

新慶生診所,25.0404845,121.551703,臺北市大安區仁愛路四段151巷36號2樓之1

優美診所,25.0333376,121.5323901,臺北市大安區新生南路二段2號7樓之5

潤弘診所,25.025213,121.537239,臺北市大安區建國南路二段276號3樓

劉建宏診所,25.02855,121.5461772,臺北市大安區大安路二段139號

金郁婦產科診所,25.0417234,121.5506259,臺北市大安區忠孝東路四段177號7樓之4

星星親子眼科診所,25.0332824,121.5385654,臺北市大安區信義路三段114號2樓

榮主診所,25.0396536,121.5564565,臺北市大安區光復南路280巷23號3樓

聯合整形外科診所,25.0329864,121.5324283,臺北市大安區新生南路二段8號2樓

楷鈞診所,25.0287514,121.5437554,臺北市大安區復興南路2段139號3樓

永悅診所,25.0414162,121.5449042,臺北市大安區忠孝東路四段50號7樓

春天診所,25.03306,121.5513299,臺北市大安區信義路四段184號3樓

安吉耳鼻喉科診所,25.0223506,121.5544801,臺北市大安區和平東路三段226號

薇娜時尚美學診所,25.041808,121.54547,臺北市大安區忠孝東路4段53之2號

安仁診所,24.9932593,121.5117427,臺北市大安區安和路1段29號6樓

許靜瑛小兒科診所,25.0260775,121.5323691,臺北市大安區和平東路1段230號1樓

莊國豐婦產科診所,25.026806,121.5232047,臺北市大安區和平東路1段8號2樓

愛爾麗診所,25.041874,121.5435049,臺北市大安區忠孝東路三段305號3樓

杏誠復健科診所,25.0334149,121.5504265,臺北市大安區信義路4段173號2樓  

博安家庭醫學科診所,25.0324319,121.5291,臺北市大安區麗水街3號

楊氏診所,25.0399145,121.5564481,臺北市大安區光復南路280巷24號 3、4、5樓

輕鬆美膚皮膚科診所,25.0175439,121.5319041,臺北市大安區羅斯福路3段301號3樓

鼎心診所,25.0332816,121.5324042,臺北市大安區新生南路2段2號2樓之5

群維診所,25.0416711,121.535973,臺北市大安區忠孝東路3段88號2樓、2樓之1

田嘉程診所,25.0363018,121.5557063,臺北市大安區延吉街239之1號

昕彤診所,25.0419294,121.5470138,臺北市大安區忠孝東路4段73之3號(4樓)

陳峙仰診所,25.0335316,121.5483967,臺北市大安區敦化南路1段376號4樓之1

瀚群骨科診所,25.0376439,121.5440919,臺北市大安區仁愛路4段2號1樓、2號3樓

芙蕾亞時尚診所,25.034036,121.544113,臺北市大安區復興南路1段70號3樓之1

諾美整形外科診所,25.034036,121.544113,臺北市大安區復興南路1段135巷27號2樓之2

那明珠診所,25.02644,121.5332197,臺北市大安區和平東路3段8號

捷靚皮膚專科診所,25.0336052,121.5441923,臺北市大安區信義路4段45號3樓之3

台北亞緻診所,25.0376729,121.5439808,臺北市大安區仁愛路4段2號6樓

昱捷診所,25.0331581,121.5432945,臺北市大安區信義路3段202號9樓之2、9樓之3

童顏診所,25.0417406,121.5416284,臺北市大安區忠孝東路3段251巷4弄6號

米洛斯整形外科診所,25.034036,121.544113,臺北市大安區復興南路1段323號6樓

邱醫師診所,25.02644,121.5332197,臺北市大安區和平東路3段288號

星采整形外科診所,25.0381004,121.5508831,臺北市大安區仁愛路4段137號3樓之2

小林醫師診所,25.0405544,121.5493708,臺北市大安區敦化南路1段225號地下二層之19

陳詩明醫師診所,25.041023,121.5474406,臺北市大安區忠孝東路4段126之3號

聖侯診所,25.019993,121.5533622,臺北市大安區樂業街139號

宇寧身心診所,25.0329698,121.5432815,臺北市大安區復興南路2段6號3樓

黃文香兒科診所,25.0411706,121.5541777,臺北市大安區忠孝東路4段250號2樓之1

美安診所,25.041329,121.54726,臺北市大安區忠孝東路4段120之11號11樓

晶晏時尚診所,25.0419469,121.5466256,臺北市大安區忠孝東路4段67之3號4樓

美之約醫美診所,25.041324,121.5453194,臺北市大安區忠孝東路4段60號12樓之2及12樓之3

富霖診所,25.0220968,121.5491553,臺北市大安區敦化南路2段333、335號4樓

敦平診所,25.0220968,121.5491553,臺北市大安區敦化南路2段333、335號3樓

春暘診所,25.0312168,121.5483828,臺北市大安區敦化南路2段46號16樓

健華診所,25.0250125,121.5448053,臺北市大安區和平東路2段299號(實際營業地址:1樓)

松德診所,25.0281223,121.5473519,臺北市大安區四維路170巷16號1樓

榮新診所,25.0252453,121.5372012,臺北市大安區建國南路2段276號8樓、9樓

雅丰美膚診所,25.0412302,121.5533975,臺北市大安區忠孝東路4段221號5樓

主愛心靈診所,25.0202207,121.5311466,臺北市大安區羅斯福路3段269巷39號1樓

優活麗診所,25.034036,121.544113,臺北市大安區復興南路1段259號12樓之1

夏爾診所,25.0349974,121.5555674,臺北市大安區信義路4段265巷52號、54號

王修含皮膚科診所,25.0415716,121.5570822,臺北市大安區忠孝東路四段333號4樓

立?診所,25.0286801,121.5399112,臺北市大安區建國南路二段151巷52號

嘉仕美整形外科診所,25.0411404,121.5540158,臺北市大安區忠孝東路4段230號2樓

雅丰時尚診所,25.0416644,121.552597,臺北市大安區忠孝東路四段221號11樓

愛美薇診所,25.033727,121.544338,臺北市大安區信義路4段1號5樓之1

林仲樞整形外科診所,25.041334,121.547999,臺北市大安區忠孝東路4段128號3樓

旭彤診所,25.0402601,121.546242,臺北市大安區大安路1段101巷10號5樓

尼斯診所,25.042409,121.5471349,臺北市大安區敦化南路1段190巷51號、53號

嘉仕萌診所,25.0412488,121.5540326,臺北市大安區忠孝東路4段230號5樓

教主醫美整形外科診所,25.0268102,121.5230299,臺北市大安區和平東路一段6號5樓、5樓之1、5樓之2

美式診所,25.0388341,121.5485531,臺北市大安區敦化南路1段270巷34號1樓及地下1樓

凡登整形外科診所,25.0336887,121.5421469,臺北市大安區信義路三段149號4樓、149號4樓之1

聖宜診所,25.0406175,121.5485903,臺北市大安區敦化南路1段232巷4號地下一層、6號地下一層、8號1樓及地下一層、10號1樓及地下一層

奧美醫美診所,25.039673,121.543418,臺北市大安區復興南路一段200號4樓

信義英爵醫美診所,25.0330278,121.5518199,臺北市大安區信義路四段206號、208號2樓、210號2樓

艾萊克時尚診所,25.0412654,121.5502932,臺北市大安區忠孝東路四段162號7樓之3

延吉美皮膚專科診所,25.0412031,121.5541909,臺北市大安區忠孝東路四段250號3樓之1、3樓之2

銘妍診所,25.0418265,121.5483288,臺北市大安區忠孝東路四段107號8樓

雅丰麗緻診所,25.0412302,121.5533975,臺北市大安區忠孝東路4段221號5樓

綺色佳診所,25.0260828,121.5484236,臺北市大安區敦化南路二段128號地下層

灩妮醫美診所,25.0268211,121.523279,臺北市大安區和平東路一段10號3樓

光慧診所,25.0274695,121.5431996,臺北市大安區復興南路二段176號

愛群婦產科診所,25.0336504,121.5428208,臺北市大安區信義路三段155號2樓之1、178號2樓、178號7樓

微顏整形外科診所,25.0383778,121.549787,臺北市大安區仁愛路四段107號5樓

禾馨新生婦幼診所,25.0258209,121.534547,臺北市大安區新生南路三段2號、2號2樓、2號3樓

光澤診所,25.0418055,121.5440186,臺北市大安區忠孝東路四段1號5樓、8樓

靚世紀診所,25.0417426,121.5500104,臺北市大安區忠孝東路四段155號3樓

和麗診所,25.0269075,121.5273328,臺北市大安區和平東路1段121號2樓

光彩時尚診所,25.0417158,121.5511481,臺北市大安區忠孝東路四段191號6樓

巨星整形外科診所,25.0417523,121.5483089,臺北市大安區忠孝東路四段107號5樓之2

麗式診所,25.0334184,121.553735,臺北市大安區信義路4段251號15樓

自體心理診所,25.0401263,121.5549203,臺北市大安區延吉街153之9號3樓

京品醫美診所,25.0418922,121.5414962,臺北市大安區忠孝東路3段249之1號7樓

晴天身心診所,25.0423395,121.554397,"臺北市大安區延吉街	135之3號2樓"

首爾醫美診所,25.0328773,121.5559606,臺北市大安區信義路4段382號5樓

蔡凱宙自然骨科診所,25.0174029,121.531961,臺北市大安區羅斯福路3段309號4樓之3

東區時尚美學診所,25.0412691,121.5483372,臺北市大安區忠孝東路4段134號9樓

全美診所,25.034036,121.544113,臺北市大安區復興南路1段127號3樓、3樓之1

如一整形外科診所,25.0336887,121.5421469,臺北市大安區信義路3段149號10樓

奧拉克診所,25.0419929,121.5442692,臺北市大安區忠孝東路四段15號6樓之1

嘉德麗雅診所,25.03367,121.5501055,臺北市大安區信義路4段155號7樓

達仁診所,25.0334507,121.5307269,臺北市大安區信義路2段208號4樓

華特診所,25.0415562,121.5573287,臺北市大安區忠孝東路四段341號5樓之1

願麗醫美診所,25.0383242,121.5458448,臺北市大安區仁愛路4段33號2樓之1

名媛芭比時尚醫美診所,25.0328524,121.5558986,臺北市大安區信義路4段380號

瑞御診所,25.0367324,121.5492744,臺北市大安區敦化南路一段259號12樓

輝馥復健專科診所,25.0409832,121.5532467,臺北市大安區忠孝東路4段218之5號2樓

緻美整形外科診所,25.0376012,121.5473566,臺北市大安區仁愛路四段50之3號(2樓)

珍世明眼科診所,25.033054,121.54795,臺北市大安區信義路4段98號2樓

馨思診所,25.0275632,121.52235,臺北市大安區羅斯福路2段41號7樓之1

小禾馨小兒專科診所,25.025632,121.5346142,臺北市大安區新生南路三段4號

潘健理診所,25.0416928,121.5357771,臺北市大安區忠孝東路三段86號8樓

百康診所,25.0416597,121.5570063,臺北市大安區忠孝東路四段333號8樓之3

水天使診所,25.0410549,121.553162,臺北市大安區忠孝東路4段218之2號6樓

尚凌診所,25.0418619,121.5419169,臺北市大安區忠孝東路三段257號3樓、261號2樓

佳立得耳鼻喉科診所,25.0343176,121.5328751,臺北市大安區新生南路1段165巷1號1樓

安瑟美膚整形外科診所,24.9932593,121.5117427,臺北市大安區安和路1段113號2樓之1

博恩妍診所,25.0417234,121.5506259,臺北市大安區忠孝東路四段177號12樓

鄢源貴婦產科診所,25.0335593,121.5515148,臺北市大安區信義路4段199巷2號5樓之1

陽光美診所,25.04099,121.55697,臺北市大安區忠孝東路4段312號4樓之4

百靈診所,25.034036,121.544113,臺北市大安區復興南路1段204號5樓之1

優爾視眼科診所,25.0358484,121.5491844,臺北市大安區敦化南路一段283號2樓、2樓之1

李細祥內科診所,25.0264337,121.5460934,臺北市大安區四維路198巷30弄5號

御美診所,25.0381004,121.5508831,臺北市大安區仁愛路4段137號4樓之2

環球診所,25.0335242,121.529795,臺北市大安區信義路二段184號4樓

米漾診所,25.0331222,121.5432566,臺北市大安區信義路3段200號12樓

福康診所,25.0418811,121.5413733,臺北市大安區忠孝東路三段247之1號3樓

凡登斐麗診所,25.0336887,121.5421469,臺北市大安區信義路3段149號3樓、149號3樓之1

毛爵生髮診所,25.041144,121.553401,臺北市大安區忠孝東路4段220號3樓、218之5號5樓

睿醫診所,25.0398591,121.5497493,臺北市大安區忠孝東路4段170巷18弄18號2樓之1

童話時尚診所,25.0320826,121.551834,臺北市大安區安和路2段20巷8號、10號

超越復健診所,25.026014,121.5237191,臺北市大安區羅斯福路二段81巷1號3、4、5樓

謝婦產科診所,25.0416129,121.5557387,臺北市大安區忠孝東路四段311號3樓之1

張涵郁診所,25.0365883,121.557317,臺北市大安區光復南路416號1樓、412號2樓

君綺診所,25.0414578,121.5447155,臺北市大安區忠孝東路4段30號9樓、10樓

璞之妍診所,25.0249441,121.5433783,臺北市大安區安和路1段21巷5號、敦化南路1段233巷13號

尚緹診所,25.0330517,121.5492185,臺北市大安區敦化南路二段1號5樓

韓風時尚整形外科診所,25.0382955,121.5568682,臺北市大安區光復南路346巷21號1樓

富盈診所,25.0261452,121.5540981,臺北市大安區基隆路2段172之1號2樓、2樓之1、2樓之2、2樓之3、3樓、3樓之1、3樓之2、3樓之3、3樓之4

安諾診所,25.0412919,121.5512919,臺北市大安區忠孝東路4段176之1號6樓

韓佳人診所,25.041341,121.547316,臺北市大安區忠孝東路4段122之1號(實際營業地址：2樓)

和欣視光眼科診所,25.02644,121.5332197,臺北市大安區和平東路3段274號(實際營業地址:1樓、地下層)

時尚元素診所,25.0273055,121.5555312,臺北市大安區基隆路2段164號2樓

衣絜時尚美學診所,25.0379387,121.554046,臺北市大安區仁愛路四段四號2樓

大安聚英視光眼科診所,25.0337981,121.5270353,臺北市大安區金山南路2段2號3樓

台生診所,25.0415562,121.5573287,臺北市大安區忠孝東路4段341號8樓之2

緻妍國際醫學美容診所,25.0410225,121.537811,臺北市大安區建國南路1段165號(3樓)

愛家自然診所,25.0411295,121.5368883,臺北市大安區建國南路1段160號6樓

大心診所,25.0421633,121.5525682,臺北市大安區忠孝東路4段205巷7弄13號2樓、153號6樓

嘉速美整形外科醫美診所,25.0413332,121.5481225,臺北市大安區忠孝東路4段130號3樓

欣昇復健科診所,25.0354481,121.5439135,臺北市大安區復興南路一段283號

星美妍國際醫美診所,25.041329,121.54726,臺北市大安區忠孝東路4段120之15號(3樓)

樂奕診所,25.0386668,121.5459778,臺北市大安區大安路1段144巷5號

樂沐時尚診所,25.0325516,121.5541933,臺北市大安區文昌街205號2樓

忠孝美麗爾診所,25.0412548,121.5484424,臺北市大安區敦化南路1段216號6樓

亞妮詩整形外科診所,25.0410549,121.553162,臺北市大安區忠孝東路4段218之1號13樓

尚行美耳鼻喉專科診所,25.0394001,121.5573819,臺北市大安區光復南路288號3樓之1、4樓之3

夏娃診所,25.0239355,121.5281757,臺北市大安區師大路68巷2號2樓

台北生髮診所,25.0420032,121.5334554,臺北市大安區忠孝東路4段77巷15號2樓、大安路1段75巷21號2樓

和平婦產科診所,25.0262959,121.5297118,臺北市大安區和平東路1段180號5樓

華育婦產科診所,25.0315638,121.5492718,臺北市大安區敦化南路二段39號12樓之1

時尚假期醫美診所,25.034036,121.544113,臺北市大安區復興南路1段222號5樓

佳思優整形醫美診所,25.0352293,121.533002,臺北市大安區新生南路1段153號2樓、2樓之1

教主診所,25.0267873,121.523077,臺北市大安區和平東路1段6號6樓、6樓之1

安民家庭醫學科診所,25.0393976,121.5460635,臺北市大安區大安路1段65號2樓之1

璞美整形外科醫美診所,25.034036,121.544113,臺北市大安區復興南路1段222號6樓

蜜絲歐妮診所,25.041023,121.5474406,臺北市大安區忠孝東路4段126之24號(12樓)

樂芙美形診所,25.0411455,121.550567,臺北市大安區忠孝東路4段166號8樓之1

全新大安診所,25.0402601,121.546242,臺北市大安區大安路1段101巷10號4樓

天美診所,25.0309676,121.5432809,臺北市大安區復興南路二段82號3樓

采欣醫美診所,25.041292,121.551292,臺北市大安區忠孝東路4段176號10樓

維納斯時尚診所,25.033749,121.527419,臺北市大安區金山南路2段3號3樓、9樓

多娜台北植髮診所,25.0332235,121.5410717,臺北市大安區信義路三段158號3樓

羅丹診所,25.04099,121.55697,臺北市大安區忠孝東路4段312號12樓、12樓之1、12樓之2、12樓之3、12樓之4

再生診所,25.033061,121.5316048,臺北市大安區永康街7巷18號

健全醫美診所,25.0336459,121.5422289,臺北市大安區信義路三段151號4樓

麗波永康國際診所,25.033547,121.5296176,臺北市大安區信義路2段178號(4樓、5樓)

享艾美時尚診所,25.0416306,121.5572026,臺北市大安區忠孝東路4段333號3樓

康博診所,25.034036,121.544113,臺北市大安區復興南路1段227號1樓

敦力診所,25.024413,121.5483388,臺北市大安區敦化南路二段164號2樓、2樓之1、2樓之2、2樓之3

恆美診所,25.0411143,121.5528113,臺北市大安區忠孝東路4段212號5樓

巴比侖診所,25.0328353,121.5491557,臺北市大安區敦化南路2段5號3樓之2、3樓之3

永茂忠孝診所,25.0416661,121.5531714,臺北市大安區忠孝東路4段231號6樓之1、6樓之2

大安眼科診所,25.0259822,121.5332443,臺北市大安區和平東路1段258號

大安身心診所,25.025588,121.536115,臺北市大安區和平東路2段18之9號

海亞大健康管理診所,25.0412534,121.5538359,臺北市大安區忠孝東路4段230號6樓

國際整形外科診所,25.0419293,121.5461303,臺北市大安區忠孝東路4段59號5樓之2、之3

靚優健康醫學美容診所,25.041023,121.5474406,臺北市大安區忠孝東路4段126之6號（A座6樓）

行一診所,25.0248832,121.5354691,臺北市大安區新生南路3段19巷8號3樓之1

原綺診所,25.033749,121.527419,臺北市大安區金山南路2段3號5樓、6樓

台北亞緻整形外科診所,25.0376729,121.5439808,臺北市大安區仁愛路4段2號5樓

信禾診所,25.0333215,121.5548563,臺北市大安區信義路4段281號2樓

成長空間診所,25.0406939,121.5463748,臺北市大安區敦化南路一段236巷29號

元晨診所,25.0412312,121.5526353,臺北市大安區忠孝東路四段1號9樓

三豐診所,25.0337715,121.534258,臺北市大安區信義路3段23號、23號2樓

A ONE 高階鼻美型診所,25.0174132,121.5321385,臺北市大安區羅斯福路3段309號3樓之2

比鼻八千代診所,25.0397231,121.5434452,臺北市大安區復興南路一段200號5樓、5樓之1

樂活診所,25.025735,121.5283029,臺北市大安區師大路12號(實際營業地址：1樓、3樓)

愛群兒童成長診所,25.0336122,121.5430479,臺北市大安區信義路三段155號1、2樓

大安?眼明眼科診所,25.034036,121.544113,臺北市大安區復興南路1段103號2樓之1

安東診所,25.0252092,121.5429088,臺北市大安區和平東路2段229號(1樓、2樓)

甯寓美學診所,25.0329739,121.5305511,臺北市大安區信義路2段198巷5號（1、2樓）

聖諦亞健康管理診所,25.0382251,121.5498394,臺北市大安區仁愛路四段109號3樓

陽光燦亮診所,25.0411455,121.550567,臺北市大安區忠孝東路四段166號7樓之3

聖緹雅醫美皮膚科診所,25.0382864,121.5498268,臺北市大安區仁愛路四段107號13樓

忠孝安媞婦產科診所,25.0419062,121.5460543,臺北市大安區忠孝東路4段59號7樓之4

美加仁愛醫美診所,25.0385923,121.5440323,臺北市大安區復興南路一段227號4樓

賽爾拉雅特時尚診所,25.035757,121.5501039,臺北市大安區仁愛路4段122巷26號(含地下1樓)

微媞時尚診所,25.041203,121.554191,臺北市大安區忠孝東路四段250號2樓及2樓之6

皇珈美學診所,25.0394472,121.5564859,臺北市大安區光復南路290巷28號

芮禾診所,25.0388932,121.5462,臺北市大安區大安路一段133號5樓

丰緹絲醫美診所,25.0411536,121.5459689,臺北市大安區大安路一段80號2樓

宏康復健專科診所,25.0330571,121.5497555,臺北市大安區信義路4段134號及134號2樓

秀寧診所,25.0431134,121.5568649,臺北市大安區光復南路116巷1號5樓、3號5樓、5號5樓(實際營業地址：6樓)

女神時尚診所,25.0418235,121.5568551,臺北市大安區忠孝東路4段329號7樓之1

澤風雅全方位診所,25.0412919,121.5512919,臺北市大安區忠孝東路4段176之1號11樓

櫟安診所,25.0279666,121.5259213,臺北市大安區金山南路2段200號11樓

立澄診所,25.0418561,121.5419778,臺北市大安區忠孝東路3段259號3樓

仁愛好日子診所,25.0397009,121.5334908,臺北市大安區仁愛路3段5巷3之2號

北秀醫美健康管理診所,25.0431134,121.5568649,臺北市大安區光復南路116巷1號6樓、3號6樓、5號6樓 (實際營業地址：7樓)

寶泫診所,25.0416146,121.5557893,臺北市大安區忠孝東路4段311號2樓之2

日本元氣診所,25.0252498,121.5491423,臺北市大安區敦化南路2段267號17樓之5

幸福婦產科診所,25.041762,121.553756,臺北市大安區忠孝東路4段235號12樓

金貞醫學美容診所,25.0442161,121.5384834,臺北市大安區市民大道3段198號11樓

膚適美診所,25.0414547,121.5456223,臺北市大安區忠孝東路4段76號6樓之4、8樓之4、8樓之3 

藏琢診所,25.0345246,121.5330328,臺北市大安區新生南路1段161巷37號1樓

容華診所,25.0411082,121.5492372,臺北市大安區敦化南路1段219號5樓

楊鵬生婦產科診所,25.0342653,121.5263294,臺北市大安區信義路2段72號2樓

聯新國際診所,25.0381881,121.5472762,臺北市大安區仁愛路4段77號3樓、3樓之1

藝群忠孝診所,25.041307,121.54799,臺北市大安區忠孝東路4段128號10樓

杏保醫網信誠診所,25.0334128,121.5514198,臺北市大安區信義路4段197號1樓、199巷2號1樓、199巷2號2樓、199巷2號2樓之1

禾馨宜蘊婦產科診所,25.0336306,121.5422163,臺北市大安區信義路3段149號14樓、14樓之1、15樓、15樓之1

大師美學診所,25.034036,121.544113,臺北市大安區復興南路1段204號3樓之1、3樓之2

君綺忠孝診所,25.0414578,121.5447155,臺北市大安區忠孝東路4段30號5、6樓

頂好預防醫學診所,25.0418741,121.5457892,臺北市大安區忠孝東路4段59號6樓之3

信德診所,25.0340765,121.5484209,臺北市大安區敦化南路1段362號5樓、5樓之1

適群診所,25.0268504,121.5479702,臺北市大安區四維路198巷32號、32之1號、32之2號、34號、36號、36之2號、復興南路2段283號10樓

王君瑜整形外科診所,25.0383481,121.549814,臺北市大安區仁愛路4段107號2樓

敦南諾貝爾眼科診所,25.0412644,121.5484891,臺北市大安區敦化南路1段216號3樓

喬雅時尚診所,25.0417202,121.5495694,臺北市大安區忠孝東路4段147巷1號10樓

東方美學診所,25.0336506,121.5454052,臺北市大安區信義路4段63號4樓

風華御髮植髮診所,25.0278009,121.522166,臺北市大安區羅斯福路2段33號4樓

熙之美醫美診所,25.034036,121.544113,臺北市大安區復興南路1段249號3樓

琢禾美學診所,25.0332816,121.5324042,臺北市大安區新生南路2段2號7樓

楊海醫師診所,25.0333376,121.5323902,臺北市大安區新生南路2段2號6樓之2

喜顏美學診所,25.0398547,121.5484655,臺北市大安區敦化南路1段252巷25號1樓 

麗生時尚美學診所,24.9932593,121.5117427,臺北市大安區安和路1段21巷17號1樓

日安健康診所,25.0383241,121.5459141,臺北市大安區仁愛路4段33號6樓

K Beauty 時尚美學診所,25.0431763,121.5531291,臺北市大安區忠孝東路4段223巷38號2樓

宇川自然醫學診所,25.036773,121.549362,臺北市大安區敦化南路1段259號2樓

木木日安皮膚專科診所,25.034036,121.544113,臺北市大安區復興南路1段81號1樓、79巷2號2樓之3及79巷4弄2號地下1層之37

醫者診所,25.0261452,121.5540981,臺北市大安區基隆路2段172之1號4樓、4樓之1、4樓之2、4樓之3、4樓之4

初樂極緻美學診所,25.0397956,121.5460814,臺北市大安區大安路1段116巷9號1樓

大中診所,25.0336918,121.5541306,臺北市大安區信義路4段265巷2號5樓

首盛診所,25.0402601,121.546242,臺北市大安區大安路1段101巷5號1樓

伊生診所,25.0397509,121.5527439,臺北市大安區忠孝東路4段216巷32弄15號(1樓)、20號3樓

維昕時尚診所,25.034036,121.544113,臺北市大安區復興南路1段137號4樓之7、4樓之8

漢蒂妮醫美診所,25.0343176,121.5328751,臺北市大安區新生南路1段165巷41號1樓、41之1號1樓

無痕美學診所,24.9932593,121.5117427,臺北市大安區安和路1段86號2樓

交感身心診所,25.0334604,121.5495463,臺北市大安區信義路4段143號4樓

生生優動忠孝新生診所,25.0402923,121.5337228,臺北市大安區濟南路3段9號1樓

心妍診所,25.0418493,121.5414886,臺北市大安區忠孝東路3段249之1號8樓

琢美妍時尚診所,25.041825,121.5453295,臺北市大安區忠孝東路4段51之4號(5樓)

永誠復健科診所,25.0252395,121.5431958,臺北市大安區復興南路二段236號2樓

慕診所,25.0329169,121.5423156,臺北市大安區復興南路二段12巷25號1樓

新復生診所,25.040598,121.5515536,"臺北市大安區仁愛路4段	151巷38號2樓"

荻珥整形外科診所,25.036702,121.549338,臺北市大安區敦化南路1段261號2樓

賦真妍整形外科專科診所,25.0412654,121.5502932,臺北市大安區忠孝東路4段162號3樓、166號3樓之3

生髮診所,25.0413759,121.5518068,臺北市大安區敦化南路1段190巷12號、忠孝東路4段101巷16號2樓之3

禾安診所,25.0415761,121.5366949,臺北市大安區忠孝東路3段100號2樓、2樓之1

淨妍醫美診所,25.0412049,121.5527798,臺北市大安區忠孝東路4段212號4樓之1

 顧芳瑜泌尿科診所,25.0331096,121.5429323,臺北市大安區信義路3段192之1號4樓

沐淨科技體雕診所,25.041364,121.546893,臺北市大安區忠孝東路4段112號12樓之13

上尚診所,25.0405097,121.5530693,臺北市大安區忠孝東路4段216巷19弄4號2樓

小岩井診所 ,25.0401093,121.556478,臺北市大安區光復南路260巷23號2樓

天予診所,25.0444267,121.5483734,臺北市大安區敦化南路1段138號4樓之7

安澐診所,25.0281935,121.5432639,臺北市大安區復興南路2段150號(1樓)

法瑞診所,25.041808,121.54547,臺北市大安區忠孝東路4段53之8號

大安皮膚專科診所,25.0329864,121.5324283,臺北市大安區新生南路2段8之1號2樓

醫者新診所,25.0261452,121.5540981,臺北市大安區基隆路2段172之1號4樓、4樓之1、4樓之2、4樓之3、4樓之4

凱妍診所,25.0413275,121.5479952,臺北市大安區忠孝東路4段128號8樓

忠孝星美妍國際醫美診所,25.041144,121.553401,臺北市大安區忠孝東路4段220號4樓

己研美學診所,25.0319781,121.5290353,臺北市大安區永康街10巷10號1樓、10巷8號(1樓含1層、2層)

樂益耳鼻喉科診所,25.0280088,121.5437216,臺北市大安區復興南路2段161號1樓

馥儷診所,25.0413736,121.5449297,臺北市大安區忠孝東路4段50號2樓

甯之美診所,25.034036,121.544113,臺北市大安區復興南路1段323號4樓

逸林診所,25.0335468,121.547803,臺北市大安區信義路4段109之2號1樓

群英整形外科診所,25.0333337,121.5547816,臺北市大安區信義路4段279號3樓、281號3樓

憶安診所,25.0338381,121.5332313,臺北市大安區信義路3段3號2樓之2

仁生復健科診所,25.0341533,121.5545467,臺北市大安區信義路4段265巷17號1樓、17號2樓

台北享新代診所,25.0417099,121.5621412,臺北市大安區忠孝東路4段26巷7號2樓

忠孝世賓婦產科診所,25.0412919,121.5512919,臺北市大安區忠孝東路4段176號4樓

苙登醫美診所,25.041364,121.546893,臺北市大安區忠孝東路4段112號9樓之13

星媺診所,25.0418265,121.5483288,臺北市大安區忠孝東路4段107號11樓

喜月泌尿診所,25.0300863,121.5222426,臺北市大安區杭州南路2段63號

看見佳醫診所,25.0418799,121.5434073,臺北市大安區忠孝東路3段305號5樓之3

秘境美學診所,25.0411792,121.5534355,臺北市大安區忠孝東路4段222號5樓、224號5樓

奐采美診所,25.0414079,121.544908,臺北市大安區忠孝東路4段50號5樓

煥儷美形仁愛診所,25.0376439,121.5440919,臺北市大安區仁愛路4段2號8樓

臻心美妍診所 ,25.0336459,121.5422289,臺北市大安區信義路3段151號7樓

杏保醫網信康診所,25.0219942,121.5491994,臺北市大安區敦化南路2段335號1樓

八千代診所,25.0402601,121.546242,臺北市大安區大安路1段101巷10號3樓

生活家醫美診所,25.0411143,121.5528113,臺北市大安區忠孝東路4段212號6樓之1

群光自然診所,25.0186924,121.53066,臺北市大安區羅斯福路3段271號10樓

伯特利敦南身心診所,25.02644,121.5332197,臺北市大安區和平東路3段1巷51號2樓

嘉齡診所,25.0424684,121.5492404,臺北市大安區敦化南路1段191號地下之28至31、地下之105至106、地下之110至113、地下之120至122、地下之130至131

家齡診所,25.0424684,121.5492404,臺北市大安區敦化南路1段191號地下之9至19、地下之88至96、地下之100至101

佳齡診所,25.0424684,121.5492404,臺北市大安區敦化南路1段191號地下、地下之1至8、地下之37至73、地下之84至85

東風診所,25.0412362,121.5481867,臺北市大安區忠孝東路4段132號4樓

禾顏時尚醫美診所,25.0418362,121.5415252,臺北市大安區忠孝東路3段249號6樓

宸光眼科診所,25.0346113,121.5517386,臺北市大安區信義路4段199巷13號1樓

大安逸采診所,25.0331829,121.542661,臺北市大安區信義路3 段186號5樓

媚登?纖體醫妍安和診所,25.0396905,121.5516905,臺北市大安區仁愛路4段151巷18號地下1層

杏澤健康診所,25.034036,121.544113,臺北市大安區復興南路1段215號12樓、12樓之1

艾戀國際診所,25.0405889,121.54934,臺北市大安區敦化南路1段225號9樓之2、忠孝東路4段166號8樓之2

冠美國際時尚診所,25.0404186,121.5564641,臺北市大安區光復南路260巷24號4樓

無齡診所,25.0367734,121.549325,臺北市大安區敦化南路1段259號13樓

禾亞國際健康診所,25.03888,121.5453168,臺北市大安區仁愛路4段27巷3號2樓

詠漾診所,25.0380595,121.5561862,臺北市大安區仁愛路4段419號3樓

寶儷國際美型診所,25.033749,121.527419,臺北市大安區金山南路二段3號8樓

睿揚診所,25.0262635,121.5295981,臺北市大安區和平東路1段180號10樓

琢月診所,25.0420974,121.5466882,臺北市大安區忠孝東路4段69之4號(5樓)

沐美診所,25.0382878,121.5449065,臺北市大安區仁愛路4段25之1號5樓

原美學診所,25.0174029,121.531961,臺北市大安區羅斯福路3段309號3樓、3樓之5

伊勢美診所,25.0338325,121.527538,臺北市大安區信義路2段104號6樓

江子朋醫美診所,25.034036,121.544113,臺北市大安區復興南路1段137號6樓之8

沐雲美學診所,25.0401263,121.5549203,臺北市大安區延吉街153之3號3樓

忠孝書拉密美學診所,25.0419817,121.5442815,臺北市大安區忠孝東路4段15號6樓

韓佳人綠洲診所,25.0443629,121.5571933,臺北市大安區光復南路72巷7弄9號1樓

樂康美診所,25.0426829,121.548482,臺北市大安區敦化南路1段188號9樓

安瑟美皮膚科診所,24.9932593,121.5117427,臺北市大安區安和路1段113號2樓

聖緹雅美學診所,25.0382971,121.5497891,臺北市大安區仁愛路4段107號6樓

司鉑診所,25.0413275,121.5479952,臺北市大安區忠孝東路4段128號12樓

曼星整形醫美診所,25.0329703,121.5453474,臺北市大安區信義路4段58號3樓之2、3樓之3、4樓之2

仁愛濰視眼科診所,25.034036,121.544113,臺北市大安區復興南路1段 243號3樓、3樓之1

鍾雲霓外科診所,25.0336887,121.5421469,臺北市大安區信義路3段149號10樓

晶漾診所,25.0415716,121.5570822,臺北市大安區忠孝東路4段333號10樓

法喬醫美診所,25.0418735,121.5468813,臺北市大安區忠孝東路4段71之2號(3樓)、73之2號(3樓)

超美診所,25.0412749,121.5513186,臺北市大安區忠孝東路4段178號9樓

禾馨大安婦幼診所,25.0255359,121.534519,臺北市大安區新生南路3段4號2樓

艾尚美醫美診所,25.041808,121.5455559,臺北市大安區忠孝東路4段55之8號(9樓)

忠孝喜月泌尿科診所,25.0419062,121.5460543,臺北市大安區忠孝東路4段59號7樓、59號7樓之1

維格診所,25.0380117,121.5555939,臺北市大安區仁愛路4段401號1樓、403號1樓、403號2樓、403號地下1層

自由風美醫診所,25.034036,121.544113,臺北市大安區復興南路1段259號2樓之1

仁愛耳鼻喉科診所,25.0388294,121.5554121,臺北市大安區光復南路308巷55號1樓

菁萃美診所,25.034036,121.544113,臺北市大安區復興南路1段279巷22號1樓

旅美學活力診所,25.034036,121.544113,臺北市大安區復興南路1段135巷17號3樓之1

久明診所,25.0347969,121.5484354,臺北市大安區敦化南路1段344號2樓、344號2樓之1

木木日安醫學美容診所,25.0443545,121.5484858,臺北市大安區敦化南路1段138之1號(1樓、2樓)

幸衍醫美診所,25.0302074,121.5440002,臺北市大安區復興南路2段111巷7號2樓

大安丰采睡眠醫學診所,25.0325439,121.5326598,臺北市大安區新生南路2段18號1樓、地下1層

芮亞時尚美學診所,25.0413269,121.5483784,臺北市大安區忠孝東路4段134號8樓

葵芮蓓緹醫美診所,25.0390654,121.5342435,臺北市大安區仁愛路3段5巷1弄9號1樓

羽田醫美診所,25.0214209,121.5276888,臺北市大安區羅斯福路3段171號6樓、6樓之1

花之妍美學診所,25.0406221,121.5565042,臺北市大安區光復南路240巷23號4樓

星媺信義診所,25.0333402,121.5554423,臺北市大安區信義路4段303號3樓

麗舍整形外科診所,25.0261452,121.5540981,臺北市大安區基隆路2段172之1號5樓、5樓之1、5樓之2、5樓之3、5樓之4

馨思身心精神科診所,25.0334507,121.5307269,臺北市大安區信義路2段208號7樓之1

艾朵拉診所,25.041394,121.545296,臺北市大安區忠孝東路4段60號3樓之3

台北孟德爾診所,25.0412474,121.5484784,臺北市大安區敦化南路1段216號10樓

澤之肌皮膚專科診所,25.0335554,121.5477526,臺北市大安區信義路4段109之1號1樓、2樓

向昕美學整形外科診所,25.0412749,121.5513186,臺北市大安區忠孝東路4段178號11樓

紐約整形外科診所,25.0411082,121.5492372,臺北市大安區敦化南路1段219號3樓

華顏醫美診所,25.0411451,121.5472735,臺北市大安區忠孝東路4段124之9號 (10樓)

和平診所,25.0270444,121.5250972,臺北市大安區和平東路1段77之2號(1樓)

DRC國際美型診所,25.0412356,121.5531816,臺北市大安區忠孝東路4段218號7樓

禾家美學診所,25.0343567,121.5472627,臺北市大安區四維路76巷11號1樓

公館得心身醫學診所,25.018002,121.5313811,臺北市大安區羅斯福路3段281號3樓之1、3樓之2

鳴一診所,25.0361154,121.5482165,臺北市大安區敦化南路1段294號1樓

向陽身心診所,25.0409832,121.5532467,臺北市大安區忠孝東路4段218之2號2樓

植診所,25.0340457,121.5361563,臺北市大安區信義路3段59號2樓

凡登顱顏診所,25.0336887,121.5421469,臺北市大安區信義路3段149號6樓、6樓之1

耐斯診所,25.0412474,121.5484784,臺北市大安區敦化南路1段216號11樓

君綺大安診所,25.041412,121.544539,臺北市大安區忠孝東路4段30號3樓(3層、4層)

康迎健康診所,25.041391,121.5457629,臺北市大安區忠孝東路4段76號2樓

愛玩美診所,25.034036,121.544113,臺北市大安區復興南路1段321號2樓

仁愛星和診所,25.0381004,121.5508831,臺北市大安區仁愛路4段137號2樓之1

于賓診所,25.041874,121.543505,臺北市大安區忠孝東路3段305號7樓之3、4、5、6

?兒美學診所,25.0339579,121.5483957,臺北市大安區敦化南路1段364號2樓

漫雲思境診所,25.0288721,121.5427101,臺北市大安區瑞安街61巷1弄5號1樓

愛群小兒專科診所,25.0332009,121.5420203,臺北市大安區信義路3段170號2樓、170號2樓之1、172號2樓、172號2樓之1

?兒診所,25.0339579,121.5483957,臺北市大安區敦化南路1段364號1樓

信義安妞美學診所,25.0332006,121.5420362,臺北市大安區信義路3段170號4樓、4樓之1

朝沐和安診所,25.0381004,121.5508831,臺北市大安區仁愛路4段137號6樓之1

初禾診所,25.041825,121.5453295,臺北市大安區忠孝東路4段51之9號

郁仁診所,25.0368407,121.549215,臺北市大安區敦化南路1段259號5樓

葳覓美學診所,25.034709,121.52537,臺北市大安區信義路2段30號2樓

采依診所,25.0276457,121.5224587,臺北市大安區羅斯福路2段41號7樓之2

博診所,25.034036,121.544113,臺北市大安區復興南路1段239號12樓

約書亞診所,25.0252453,121.5372012,臺北市大安區建國南路2段276號7樓

非凡復健科診所,25.0288781,121.5409827,臺北市大安區瑞安街180巷2號1樓、2之1號1樓

青熙美學診所,25.0412511,121.5473201,臺北市大安區忠孝東路4段120之8號(8樓)

凡恩絲診所,25.0336887,121.5421469,臺北市大安區信義路3段149號7樓之1

小蒔代美學診所,25.0381004,121.5508831,臺北市大安區仁愛路4段137號10樓

愛美士時尚醫美診所,24.9932593,121.5117427,臺北市大安區安和路1段61號4樓

芮態診所,25.0442878,121.5398102,臺北市大安區市民大道3段206號5樓

基督復臨安息日會醫療財團法人臺安診所,25.0291153,121.5483905,臺北市大安區敦化南路二段76號11樓、11樓之1、11樓之2、11樓之3

尹書田醫療財團法人書田泌尿科眼科診所,25.0251834,121.5372485,臺北市大安區建國南路2段276號1樓、2樓、4樓、4樓之1、B1、B1之1、278號1樓

台灣地區婦幼衛生中心醫療財團法人婦幼保健診所,25.034036,121.544113,臺北市大安區復興南路1段285號9樓

萬華瀚群骨科診所,25.0364827,121.4992314,臺北市萬華區西園路一段176號(實際營業地址:1樓、2樓)

榮順診所,25.0334012,121.4924217,臺北市萬華區環河南路二段238號

福全身心科診所,25.024554,121.5098259,臺北市萬華區中華路二段600號

益銓診所,25.0264363,121.5007182,臺北市萬華區萬大路233號

京采美醫診所,25.0410877,121.5075464,臺北市萬華區中華路一段170號3樓、3樓之1及3樓之2

黃健勇皮膚科診所,25.04322,121.504515,臺北市萬華區成都路97號(實際營業地址:1、2樓)

陽光眼科診所,25.0398598,121.503945,臺北市萬華區貴陽街二段81號、83號2樓

萬華身心精神科診所,25.0351616,121.4988959,臺北市萬華區和平西路3段142號

君綺時尚診所,25.0446881,121.5084757,臺北市萬華區中華路一段90號10樓

明峰診所,25.0260296,121.50546,臺北市萬華區青年路22號

台北透析診所,25.0358949,121.4991195,臺北市萬華區西園路一段200號3樓

麗思醫美診所,25.041995,121.507638,臺北市萬華區成都路4號4樓

名家耳鼻喉科診所,25.0294985,121.5034524,臺北市萬華區西藏路107-2號(1樓)

和煦診所,25.0352083,121.4966459,臺北市萬華區和平西路3段216號1樓

可為診所,25.0259285,121.5052919,臺北市萬華區青年路24號(1樓)

日安診所,25.033786,121.493294,臺北市萬華區環河南路2段145號1樓

晟祐診所,25.0409668,121.5074969,臺北市萬華區中華路1段170號5樓之1

東京生活診所,25.0201339,121.4979874,臺北市萬華區萬大路491號(1、2樓)

萬華維沐身心診所,25.029609,121.5030185,臺北市萬華區西藏路113號1樓

復安診所,25.0253587,121.4947792,臺北市萬華區寶興街115號1樓、117號1樓

同仁院醫療財團法人貴陽診所,25.0400598,121.5042835,臺北市萬華區昆明街169號(1樓)

臺北市立聯合醫院附設萬華門診部,25.0231742,121.4976369,臺北市萬華區東園街152號(1樓)

萬華劉小兒科診所,25.039582,121.5017796,臺北市萬華區康定路158號

鄭內兒科診所,25.0290361,121.4921455,臺北市萬華區艋舺大道430號

賴耳鼻喉科診所,25.0292876,121.4957182,臺北市萬華區西園路二段１９４－１號

樺昌耳鼻喉科診所,25.025419,121.508324,臺北市萬華區中華路二段５２４號

世福診所,25.0453182,121.5029427,臺北市萬華區康定路18之3號(實際營業地址:2樓)

益生婦產科診所,25.0215056,121.4983919,臺北市萬華區萬大路４０６－１號

顏克文診所,25.0399317,121.5034749,臺北市萬華區貴陽街二段１０３號

林進雄診所,25.0383483,121.5001198,臺北市萬華區桂林路102號1樓

博大泌尿科診所,25.0416052,121.5020747,臺北市萬華區康定路92號

鄭眼科診所,25.0310808,121.5038466,臺北市萬華區莒光路１２３號

童錫鈺診所,25.0200506,121.4956568,臺北市萬華區萬大路４８６巷５９弄１７號

盧漢隆耳鼻喉科診所,25.0322564,121.4918339,臺北市萬華區環河南路二段１９７號

萬華蔡耳鼻喉科診所,25.0359946,121.5033192,臺北市萬華區昆明街３１２之１號

周耳鼻喉科診所,25.0388683,121.5007386,臺北市萬華區西昌街173號(1樓)

漢宗小兒科診所,25.0271178,121.5064969,臺北市萬華區中華路2段434號

視強眼科診所,25.0247128,121.5093843,臺北市萬華區中華路二段５９８號之４

聖約翰婦產科診所,25.0239853,121.4974714,臺北市萬華區東園街175號

裕仁診所,25.0296491,121.5006906,臺北市萬華區萬大路117號2樓、西藏路292號2樓

大元婦產科診所,25.0305006,121.4959128,臺北市萬華區西園路二段１４０巷８號

許孟權小兒科診所,25.0295898,121.5029181,臺北市萬華區西藏路115號

天行健診所,25.0252083,121.4948514,臺北市萬華區寶興街121、125、127號

中山婦產科診所,25.038361,121.4998707,臺北市萬華區桂林路１１４號

生生整形外科診所,25.043056,121.504314,臺北市萬華區成都路96號2樓

維恩耳鼻喉科診所,25.0205496,121.4978116,臺北市萬華區萬大路446號

萬太診所,25.0240297,121.5001183,臺北市萬華區萬大路四三四號

君怡耳鼻喉科診所,25.0400228,121.5027651,臺北市萬華區貴陽街二段七十六號一樓

城中瑪麗安婦產科診所,25.0418696,121.507715,臺北市萬華區成都路4號2樓、中華路一段158號(實際開業地址2樓)

萬澤內科診所,25.0213429,121.4987116,臺北市萬華區萬大路425之1號2、3、4樓

萬嘉耳鼻喉科診所,25.0288895,121.5003665,臺北市萬華區萬大路144號1樓

光耳鼻喉科診所,25.0230929,121.5025891,臺北市萬華區青年路90號

永康診所,25.0380632,121.5042904,臺北市萬華區桂林路47號1樓2樓及地下1樓

新東平診所,25.0226928,121.4978538,臺北市萬華區東園街１６２號

許士昌診所,25.0325222,121.5008527,臺北市萬華區艋舺大道168巷７號

陳國賢診所,25.0266708,121.5002954,臺北市萬華區萬大路２３6號1.2樓

嘉生診所,25.0364861,121.50297,臺北市萬華區廣州街72號(1樓)、74號(1樓)

慧洋診所,25.0310847,121.5038183,臺北市萬華區莒光路１２５號

長泰耳鼻喉科診所,25.0258052,121.5003077,臺北市萬華區萬大路270號

陳嘉銘診所,25.0188084,121.4941682,臺北市萬華區武成街63巷12弄49號

新和診所,25.0254858,121.500316,臺北市萬華區萬大路284號

豪診所,25.0240297,121.5001183,臺北市萬華區萬大路二三四號

快樂兒童診所,25.0252083,121.4948514,臺北市萬華區寶興街121、125、127號

青年診所,25.0287057,121.5052712,臺北市萬華區中華路二段四二四號

新田診所,25.0356816,121.4974974,臺北市萬華區梧州街62號

吳明修診所,25.0287057,121.5052712,臺北市萬華區中華路二段40.42號4樓

佳安診所,25.0257006,121.5045323,臺北市萬華區青年路34號

好視多眼科診所,25.0258781,121.5006714,臺北市萬華區萬大路257號

曾正彥診所,25.0290038,121.4947201,臺北市萬華區西藏路472號

幸福診所,25.0361557,121.5015135,臺北市萬華區康定路199號

雙園診所,25.0285048,121.493787,臺北市萬華區西藏路261之3號

健安診所,25.0208299,121.4980321,臺北市萬華區萬大路432號

萬華衛康內科診所,25.0267713,121.5006703,臺北市萬華區萬大路217號

艋舺通安診所,25.0333563,121.4922603,臺北市萬華區環河南路2段242號、242之1號

安興診所,25.038533,121.501212,臺北市萬華區桂林路101號(實際營業地址1、2樓)

松柏復健科診所,25.0274261,121.5060319,臺北市萬華區中華路2段426之1號(1樓)、484巷14之1號(1樓)、484巷14之2號(1樓)

吳淑芬眼科診所,25.0323035,121.4918829,臺北市萬華區環河南路二段195號

呂松竹診所,25.0313918,121.5036155,臺北市萬華區莒光路116號2樓之1

日光眼科診所,25.0353965,121.5015906,臺北市萬華區和平西路三段85號(實際營業地址：1、2樓)

雙和診所,25.0274856,121.5054251,臺北市萬華區國興路104號

蔣富強皮膚專科診所,25.0259347,121.5003246,臺北市萬華區萬大路264號、264號2樓

博昌復健科診所,25.0267466,121.5006405,臺北市萬華區萬大路221號(實際開業地址一樓)

光晶妍寶島眼科診所,25.0232274,121.499968,臺北市萬華區萬大路355號1樓(含夾層)

瑞生診所,25.0280431,121.4948197,臺北市萬華區西園路二段250號、250號2樓、250號3樓、252號、252號2樓、252號3樓

佳德內科診所,25.0358949,121.4991195,臺北市萬華區西園路一段200號2樓

日康復健科診所,25.0422056,121.5843871,臺北市信義區中坡南路十六 號

德明眼科診所,25.0364868,121.581495,臺北市信義區松山路二一二號

明輝診所,25.0482475,121.5758024,臺北市信義區松隆路282之3號

陳育鵬內科診所,25.0372149,121.57817,臺北市信義區松山路568號

福德郭耳鼻喉科診所,25.03693,121.5805992,臺北市信義區福德街62號

林應然小兒科診所,25.0368447,121.5811458,臺北市信義區福德街75號

聿康診所,25.0407682,121.5727125,臺北市信義區忠孝東路五段250號2樓

慶峰診所,25.0432799,121.578036,臺北市信義區松山路２７５－２號１樓

松山長春外科診所,25.0456549,121.575996,臺北市信義區永吉路３３５號１Ｆ

臺北市立聯合醫院附設信義門診部,25.0389981,121.5828992,臺北市信義區大道路116號1樓、2樓

臺北市政府醫務室,25.0381727,121.5643485,臺北市信義區市府路1號(1樓東區)

臺北市議會醫務室,25.0383896,121.5619995,臺北市信義區仁愛路四段507號

聯合報系員工診療所,25.0459229,121.582545,臺北市信義區忠孝東路四段五五九巷一號六樓

台灣中油股份有限公司員工診所,25.0396865,121.5693772,臺北市信義區松仁路3號(實際營業地址:3樓)

財團法人生命連線基金會附設醫務室,25.0417427,121.5437974,臺北市信義區忠孝東路5段552號15樓

臺北婦產科診所,25.0343905,121.5678667,臺北市信義區松仁路100號14樓之2

松仁婦產科診所,25.0343905,121.5678667,臺北市信義區松仁路100號14樓之1

謝政興泌尿科診所,25.0417427,121.5437974,臺北市信義區忠孝東路5段1之2號3樓

?麗恆全人診所,25.0417427,121.5437974,臺北市信義區忠孝東路5段431號2樓

依心唯美整形外科診所,25.0320671,121.559249,臺北市信義區基隆路2段13號2樓、15號2樓

錢本文診所,25.0289464,121.5720526,臺北市信義區信義路5段150巷2號17樓之1

欣欣診所,25.0434319,121.5766259,臺北市信義區虎林街82巷13號

嚴敏心耳鼻喉科診所,25.0376285,121.5784585,臺北市信義區松山路541巷4號(1樓)

耐斯信義診所,25.0414646,121.5640218,臺北市信義區忠孝東路4段563號6樓、6樓之2

忠孝英爵診所,25.0415889,121.56405,臺北市信義區忠孝東路4段563號2樓

上帝視角診所,25.0419415,121.5653136,臺北市信義區基隆路1段163號13樓之3

美麗馨診所,25.0431689,121.5829426,臺北市信義區中坡南路28號1樓

心品診所,25.0417427,121.5437974,臺北市信義區忠孝東路5段1之5號4樓、1之7號4樓

劉教授婦產科診所,25.0394199,121.5717534,臺北市信義區忠孝東路5段236巷32號1樓、236巷30號2樓

信義霍普金斯診所,25.0417427,121.5437974,臺北市信義區忠孝東路5段477之6號1樓、2樓、477之1號(2樓)

美麗信義皮膚科診所,25.0417427,121.5437974,臺北市信義區忠孝東路5段145號1樓

康璽診所,25.0417427,121.5437974,臺北市信義區忠孝東路5段412之7號1樓及地下一層

信義適康復健科診所,25.0356848,121.5577226,臺北市信義區光復南路439號(1、2樓)

秀光診所,25.041448,121.578033,臺北市信義區松山路４０５號１Ｆ

張葉森診所,25.0450681,121.5689167,臺北市信義區永吉路３０巷１５號１Ｆ

劉玄統診所,25.038292,121.5773789,臺北市信義區松德路２５巷４２號

鄭光志小兒科診所,25.0390751,121.5774297,臺北市信義區松德路23號(實際營業地址:1樓)

張育驍診所,25.0238695,121.5693372,臺北市信義區吳興街467巷2弄4號1樓、6號1樓、6號2樓、10號1樓、14號1樓、16號1樓

康泰診所,25.0455247,121.5695047,臺北市信義區永吉路54號

伍瑞吉醫師診所,25.0415427,121.578027,臺北市信義區松山路４０１號１樓

王剴鏘醫師診所,25.0406935,121.574225,臺北市信義區忠孝東路五段388號3樓

明陽診所,25.0422311,121.5688979,臺北市信義區永吉路３０巷１５７弄４號１樓

德文診所,25.0246,121.5686275,臺北市信義區松仁路240巷15號

姚醫師診所,25.0407412,121.5746302,臺北市信義區忠孝東路五段396號二樓

永吉聯合診所,25.0456906,121.5757462,臺北市信義區永吉路329號1、2樓及331號1、2樓

陳世卿診所,25.0364554,121.5579863,臺北市信義區莊敬路四三五號

約瑟皇家診所,25.0405778,121.5671,臺北市信義區忠孝東路四段五００號七樓之六

大新診所,25.0422056,121.5843871,臺北市信義區中坡南路七十六號

登瑞安診所,25.0424847,121.5813554,臺北市信義區林口街232號1樓

博馨診所,25.045369,121.573862,臺北市信義區永吉路236號

陳逸川眼科診所,25.0380108,121.5760869,臺北市信義區松德路95號、97號

信義耳鼻喉科診所,25.0279881,121.5658266,臺北市信義區莊敬路391巷4號

俊安診所,25.0426232,121.568451,臺北市信義區永吉路30巷148弄6號

松禾診所,25.0477011,121.577614,臺北市信義區松山路130號3樓、3樓之1

信義邱婦產科診所,25.0384252,121.5768581,臺北市信義區虎林街198號

連小兒科診所,25.039847,121.578717,臺北市信義區松山路４６５巷１１號１Ｆ

朱耳鼻喉科診所,25.0417427,121.5437974,臺北市信義區忠孝東路5段452號1樓

彭婦產科診所,25.0457536,121.5726219,臺北市信義區永吉路185之4號、185之1號2樓

有成外科診所,25.045779,121.5738693,臺北市信義區永吉路213號

黃正麟皮膚科診所,25.0406569,121.576851,臺北市信義區忠孝東路五段４７０號２樓

黃啟彰診所,25.0438009,121.578016,臺北市信義區松山路２６１－１號１樓

高眼科診所,25.0300687,121.5616607,臺北市信義區莊敬路２１６號１Ｆ

詹毅然內科診所,25.0236362,121.5547851,臺北市信義區嘉興街３０２號１Ｆ

富陽劉內兒科診所,25.0226819,121.556525,臺北市信義區富陽街４３號１Ｆ

劉彥煌耳鼻喉專科診所,25.0267118,121.5677284,臺北市信義區莊敬路４６２號１Ｆ

王寬仁診所,25.0403625,121.5772672,臺北市信義區虎林街１２１巷１１號１樓

春田耳鼻喉科診所,25.0312589,121.5576657,臺北市信義區光復南路５５５號１樓

吳潮峰眼科診所,25.045645,121.576121,臺北市信義區永吉路３４１號１Ｆ

松山陳耳鼻喉科診所,25.0391189,121.5780672,臺北市信義區松山路４８３號－１、１Ｆ

大明診所,25.0244536,121.5540411,臺北市信義區崇德街３５號１樓

陳國泰皮膚科診所,25.0447252,121.5775763,臺北市信義區松山路２２４號１樓

長風小兒科診所,25.0279116,121.5645469,臺北市信義區莊敬路３５１號１樓

王知行婦產科診所,25.0453727,121.5751515,臺北市信義區永吉路308號

松仁耳鼻喉科診所,25.0261436,121.5688038,臺北市信義區松仁路231號

悠亞診所,25.0417427,121.5437974,臺北市信義區忠孝東路5段727號

佳康內科診所,25.0288849,121.5572619,臺北市信義區基隆路2段109號8樓、8樓之1

陽光耳鼻喉科診所,25.0387369,121.5778733,臺北市信義區松山路484之8號

黎明眼科診所,25.0412552,121.5677005,臺北市信義區忠孝東路五段135號七樓

新眼光眼科診所,25.0409849,121.5786202,臺北市信義區忠孝東路五段508之1號及518號

杏仁復健科診所,25.0457317,121.5742628,臺北市信義區永吉路227號(1、2樓)

家瑋生育診所,25.0317558,121.5576266,臺北市信義區光復南路525號1樓

松德耳鼻喉科診所,25.0387527,121.5763647,臺北市信義區松德路58號1樓

儷寶得信義皮膚科診所,25.0417427,121.5437974,臺北市信義區忠孝東路5段15巷15號1樓

悠美診所,25.040918,121.5620421,臺北市信義區忠孝東路4段504號(1樓)

臺北產業醫診所,25.033976,121.5645389,臺北市信義區信義路5段7號35樓(I室)

承芯耳鼻喉科診所,25.0394401,121.5832237,臺北市信義區大道路121號1樓

靚顏維格診所,25.044338,121.580893,臺北市信義區中坡北路3號1樓、5號1樓

遠見眼科診所,25.033976,121.5645389,臺北市信義區信義路5段7號84樓之1

101諾貝爾眼科診所,25.0326562,121.563597,臺北市信義區信義路5段18號1樓

晶鑽診所,25.0414646,121.5640218,臺北市信義區忠孝東路4段563號3樓之1、565號3樓

鴻馨診所,25.0332805,121.5584025,臺北市信義區信義路4段391號4樓之1

愛欣診所,25.0434309,121.5765619,臺北市信義區虎林街82巷15號1樓

吉兆診所,25.0280286,121.5682243,臺北市信義區松仁路176號1樓

忠孝診所,25.0417427,121.5437974,臺北市信義區忠孝東路5段772號1樓

醫願診所,25.0328405,121.5582742,臺北市信義區 信義路4段456號3樓、3樓之1、3樓之2、3樓之3

松阪悠美診所,25.0419415,121.5653136,臺北市信義區基隆路1段172巷7號2樓、9號2樓

美迪婦產科診所,25.0326176,121.5636202,臺北市信義區信義路5段18號2樓

101時尚診所,25.0417427,121.5437974,臺北市信義區忠孝東路5段35號4樓

松德精神科診所,25.0377293,121.5749739,臺北市信義區松德路108號

科美診所,25.0446379,121.580885,臺北市信義區中坡北路13號1樓

正興復健科診所,25.0453346,121.5762591,臺北市信義區永吉路344號

錦宜診所,25.033264,121.557749,臺北市信義區信義路4段375號8樓之5

自在診所,25.0413315,121.585166,臺北市信義區中坡南路84號

博文診所,25.0242852,121.5636092,臺北市信義區吳興街284巷1之4號

德佑診所,25.0384108,121.5847254,臺北市信義區福德街215號1樓

瑞妮絲醫美診所,25.0320589,121.5576401,臺北市信義區光復南路505號4樓

慧祥診所,25.0387369,121.5778733,臺北市信義區松山路484之5號

康誠內科診所,25.0364716,121.5786319,臺北市信義區松山路625號

健康吉美診所,25.0428735,121.5649649,臺北市信義區基隆路一段176號16樓

仁瀚骨科診所,25.0229062,121.5553841,臺北市信義區信安街151號

髮拉儷皮膚科診所,25.0412516,121.567905,臺北市信義區忠孝東路五段139號4樓

伯特利身心診所,25.036249,121.5578478,臺北市信義區光復南路421號2樓

祐誠骨科診所,25.0349437,121.5763895,臺北市信義區信義路6段77號79號

君綺信義診所,25.0387588,121.5662595,臺北市信義區松智路1號5樓

新佑泉診所,25.0417427,121.5437974,臺北市信義區忠孝東路5段508之4號

信義身心精神科診所,25.0271459,121.5661503,臺北市信義區莊敬路412號

理恩診所,25.0417427,121.5437974,臺北市信義區忠孝東路5段410之2號(1樓)

探索神經科診所,25.0320482,121.5591867,臺北市信義區基隆路二段17號2樓

市府八千代診所,25.0417714,121.5652603,臺北市信義區基隆路一段163號15樓之2、之3

飛悅皮膚科診所,25.0417427,121.5437974,臺北市信義區忠孝東路5段508號1樓、508號地下一樓、508號13樓之1

興雅診所,25.042269,121.5674948,臺北市信義區忠孝東路5段71巷19號

王家瑋婦產科診所,25.0313386,121.5583653,臺北市信義區基隆路二段56號、56號地下層、58號、60號、62號

永吉羅耳鼻喉科診所,25.045316,121.574005,臺北市信義區永吉路272號

莊敬診所,25.0287491,121.562724,臺北市信義區莊敬路280號

愛利膚皮膚科診所,25.0276073,121.5646313,臺北市信義區莊敬路366號

新詠康診所,25.0417427,121.5437974,臺北市信義區忠孝東路5段242號3樓、244號3樓

弘安診所,25.0479079,121.572333,臺北市信義區松信路43號

順康復健科診所,25.0276073,121.5645177,臺北市信義區莊敬路362號、364號、364號2樓

原力復健科診所,25.0269792,121.555762,臺北市信義區基隆路2段145號145號2樓、145號地下1層

心苑診所,25.0469185,121.5667135,臺北市信義區東興路63之1號3樓

晶愛眼科診所,25.0267749,121.5674865,臺北市信義區莊敬路454號、454號2樓

美麗境界診所,25.0412282,121.5685145,臺北市信義區忠孝東路五段159號2樓

長松綠診所,25.0412313,121.5685155,臺北市信義區忠孝東路五段159號5樓

髮拉儷美學植髮診所,25.0412516,121.567905,臺北市信義區忠孝東路五段139號3樓

東之美診所,25.0417427,121.5437974,臺北市信義區忠孝東路5段187號2樓

采醫緻麗整形外科診所,25.0421829,121.5654206,臺北市信義區基隆路一段155號3樓之3、3樓之4

米妮診所,25.0324168,121.5586686,臺北市信義區信義路4段450巷9號7樓

桂其安家醫科診所,25.0267118,121.5677284,臺北市信義區莊敬路462號

雅禾診所,25.035436,121.5687438,臺北市信義區松仁路107號13樓

松山班廷建興診所,25.0488109,121.5796529,臺北市信義區市民大道6段318號(實際營業地址：1樓、2樓)

合安眼科診所,25.0248532,121.5533662,臺北市信義區基隆路2段189號

信義101健康管理診所,25.0328148,121.5608745,臺北市信義區信義路5段8號4樓

安珀琢玉醫美診所,25.0333787,121.5692434,臺北市信義區信義路五段55號2樓、57號2樓

榮清耳鼻喉科診所,25.096158,121.5242047,臺北市士林區文林路483號(1、2樓)

耀明診所,25.0947379,121.522596,臺北市士林區中正路322號

士林承德診所,25.0928924,121.5149739,臺北市士林區承德路五段54號

樹爸爸親子診所,25.1099779,121.5360119,臺北市士林區德行東路286號

鴻林診所,25.0917355,121.5255644,臺北市士林區大東路128號

文林骨科診所,25.0958363,121.5245452,臺北市士林區文林路468號

貝爾診所,25.1213853,121.5324362,臺北市士林區中山北路七段82巷9號

小禾馨士林小兒專科診所,25.0946875,121.5239162,臺北市士林區中正路289號(1樓)

橙光耳鼻喉科診所,25.0888093,121.5193307,臺北市士林區大南路286號

佩佩婦幼診所,25.1075459,121.5252722,臺北市士林區中山北路六段182號、182號2樓

士林大學眼科診所,25.0965067,121.5243432,臺北市士林區文林路496號(含夾層)、498號(含夾層)、500號及500號2樓

心福內科診所,25.1071716,121.5248313,臺北市士林區中山北路六段167號(實際使用:1、2樓)

三玉品恆復健科診所,25.1182478,121.5331263,臺北市士林區天母東路53號

伯仁診所,25.0931423,121.5281616,臺北市士林區中山北路五段516號2樓

聯志骨科診所,25.0868563,121.522405,臺北市士林區承德路四段184號

境靜眼科診所,25.0967787,121.5278998,臺北市士林區中山北路5段626號1樓

優儷芙生活診所,25.0948898,121.523231,臺北市士林區中正路300號(2樓)

自由想心理診所,25.1025811,121.5229225,臺北市士林區福華路122號2樓

德生診所,25.0976517,121.5240637,臺北市士林區文林路552號(1樓)

心築身心診所,25.0810811,121.520053,臺北市士林區通河街90號1樓

士林身心醫學診所,25.0940498,121.5250071,臺北市士林區文林路410號(1、2樓)

藝群士林診所,25.093391,121.5195478,臺北市士林區中正路422號1樓

士林星和診所,25.0924882,121.5282136,臺北市士林區中山北路5段472號5樓

天母麥茵茲美形診所,25.1192049,121.529942,臺北市士林區天玉街38巷20號4樓

天母好日子診所,25.1062128,121.5225951,臺北市士林區磺溪街21巷8號(1、2樓)

一七美生活診所,25.1031683,121.5250184,臺北市士林區中山北路6段17號(1樓、2樓)

朝陽復健科診所,25.0978739,121.5269798,臺北市士林區中山北路5段699巷2號

一森診所,25.0924301,121.5281868,臺北市士林區中山北路5段476號1樓

張國榮身心診所,25.1088825,121.5310689,臺北市士林區德行東路179號(1樓)

品維維健康美學診所,25.0880925,121.5222989,臺北市士林區承德路4段191號1樓、191-1號(1樓)、191-2號(1樓)

原蘊醫學診所,25.0924301,121.5281868,臺北市士林區中山北路5段476號8樓

延年診所,25.0967621,121.5243504,臺北市士林區文林路506號(1樓)

禾旭診所,25.0888672,121.5177613,臺北市士林區大南路323之1號12樓(12層、13層)

宜達診所,25.0849649,121.5196857,臺北市士林區前港街86號1樓

士林萊可美學診所,25.0928286,121.5282652,臺北市士林區中山北路5段500號5樓

永捷診所,25.0874984,121.5067012,臺北市士林區社子街67號1樓

越揚預防醫學診所,25.0931423,121.5281616,臺北市士林區中山北路5段516號7樓

當代美學診所,25.0943392,121.5211964,臺北市士林區中正路364號1樓及2樓

正欣診所,25.0928995,121.5282784,臺北市士林區中山北路5段502號2樓

天母許內科家醫科診所,25.120989,121.52692,臺北市士林區天母北路49號

社子陳診所,25.0855029,121.5098147,臺北市士林區延平北路五段２８４號1樓

何敦恥診所,25.0952924,121.5263402,臺北市士林區中正路２２１號

林博通醫師診所,25.0806319,121.5210112,臺北市士林區通河街６０號

蘇慧卿診所,25.0887571,121.5197184,臺北市士林區大南路２７４號

洪楷義耳鼻喉科診所,25.1127338,121.530978,臺北市士林區忠誠路二段８８號１樓

張松柏眼科診所,25.1111599,121.5304843,臺北市士林區忠誠路二段58號2樓

梁如蘭眼科診所,25.1097038,121.5256132,臺北市士林區中山北路六段２６６號１樓

吳俊昇眼科診所,25.1139254,121.5273374,臺北市士林區中山北路六段４３4號１樓

王文豪診所,25.0971438,121.5222038,臺北市士林區美崙街６6號1樓

忠誠聯合診所,25.110809,121.5290786,臺北市士林區忠誠路2段50巷35號

華齡診所,25.0845379,121.519468,臺北市士林區華齡街７４號１樓

慈田耳鼻喉科診所,25.0832666,121.5099797,臺北市士林區延平北路五段１８５號１樓

天母英明診所,25.1189779,121.5341726,臺北市士林區天母東路６９巷７號１Ｆ

何小兒科診所,25.0866141,121.5176786,臺北市士林區福港街１７６號

政吉內科診所,25.112124,121.5281738,臺北市士林區士東路６7號

蕭雨青小兒科診所,25.0856826,121.5097826,臺北市士林區延平北路五段２９２號１樓

葉耳鼻喉科診所,25.0840235,121.5101278,臺北市士林區延平北路五段218號

立安復健科診所,25.091757,121.5255706,臺北市士林區大東路130號

保安眼科診所,25.089527,121.525396,臺北市士林區大東路44號

鄭福山婦產科診所,25.1094445,121.525567,臺北市士林區中山北路六段256號

韓偉骨科診所,25.0928962,121.5282738,臺北市士林區中山北路5段506號7樓

杏昌診所,25.1028175,121.5204296,臺北市士林區文林路736號1樓

柏齡診所,25.0885755,121.5183141,臺北市士林區福港街105號

迦美診所,25.1184907,121.531071,臺北市士林區中山北路七段14巷2-2號3樓

平安診所,25.0874272,121.5075958,臺北市士林區社子街36之1號1樓

林志聰皮膚科診所,25.095238,121.52171,臺北市士林區文昌路26號

天晴診所,25.1104268,121.5256815,臺北市士林區中山北路六段292號、292號2樓

永安診所,25.116046,121.526432,臺北市士林區中山北路六段405巷63號、63號地下1層及63之1號

佳視得眼科診所,25.119403,121.526574,臺北市士林區天母北路11-1號1樓

東杏診所,25.114082,121.527016,臺北市士林區中山北路六段431之2號2樓

淨美皮膚科診所,25.092264,121.5258712,臺北市士林區文林路317號(實際使用:1、2樓)

健群骨科診所,25.0870986,121.509287,臺北市士林區延平北路6段8號(1、2、3樓)及10號(1、2、3樓)

天母芝美時尚診所,25.1038213,121.5220379,臺北市士林區福華路159號1樓

博政骨科診所,25.1042982,121.5211816,臺北市士林區德行西路99號、101號

葉眼科診所,25.0829284,121.5100524,臺北市士林區延平北路5段173號(實際使用1、2層）

晶美整形外科診所,25.0927295,121.5255694,臺北市士林區文林路343號(實際使用:1、2、3樓)

士林小兒科診所,25.0950678,121.5253681,臺北市士林區中正路249號

凱硯診所,25.1220482,121.5319494,臺北市士林區中山北路七段110號3樓、110之1號3樓、110號4樓、110之1號4樓

天母品恆復健科診所,25.1087805,121.5308891,臺北市士林區忠誠路1段135號1樓、137號1樓、157號1樓及169號1樓

和謙耳鼻喉科診所,25.0925188,121.5041195,臺北市士林區社中街362號1樓

華崗文化診所,25.1380856,121.5471817,臺北市士林區菁山路26號(1層)

怡德診所,25.0933395,121.5254024,臺北市士林區文林路342號6樓

揚德健康診所,25.0930709,121.519004,臺北市士林區中正路436號(1、2樓)

科安診所,25.0898456,121.5104206,臺北市士林區社中街116號

天母康健身心診所,25.104071,121.521173,臺北市士林區德行西路100號

佑康診所,25.0812242,121.519739,臺北市士林區通河街100號

社子安心診所,25.0807546,121.5108821,臺北市士林區延平北路五段76號

永恆美診所,25.1046802,121.5271401,臺北市士林區忠誠路一段58號(實際使用：1樓及地下1、2層)

陳建華整形外科診所,25.1185552,121.5293523,臺北市士林區天母西路3號3樓之2

士林復健科診所,25.096361,121.523962,臺北市士林區文林路497號

德泰耳鼻喉科診所,25.0804629,121.5214449,臺北市士林區通河街42之1號

杏美皮膚科診所,25.118358,121.5259629,臺北市士林區天母西路４０之１號２樓

蘇惠珍皮膚專科診所,25.1060819,121.5320329,臺北市士林區忠義街８３號

仁友皮膚科診所,25.0945444,121.5255528,臺北市士林區美德街２２之１號１樓

粱耳鼻喉科診所,25.0885199,121.5092819,臺北市士林區社正路12之1號

羅氏皮膚科診所,25.1185112,121.5311236,臺北市士林區中山北路七段１４巷２號２樓

林佳宏小兒科診所,25.1145449,121.5276359,臺北市士林區中山北路六段４６２號

高醫師家庭醫學科診所,25.1191314,121.5304358,臺北市士林區中山北路7段17號2樓

榮庚皮膚科診所,25.0956091,121.5263766,臺北市士林區中正路210之1號1樓

柯佑民小兒科診所,25.1169996,121.533126,臺北市士林區天母東路８巷１９弄５號１樓

德福診所,25.0900093,121.5255087,臺北市士林區大東路七十七號

盧金成婦產科診所,25.1080509,121.5305103,臺北市士林區忠誠路一段１７９號２樓

何英世婦產科診所,25.0961647,121.5244429,臺北市士林區文林路４８２號１樓

家庭醫師張正弘診所,25.1205138,121.5290841,臺北市士林區天玉街３８巷９號

祐聖眼科診所,25.0862184,121.5096377,臺北市士林區延平北路五段３１６號

楊是韻皮膚科診所,25.1105348,121.525728,臺北市士林區中山北路六段298號１樓

芝山診所,25.1062089,121.5317716,臺北市士林區忠義街82號1樓

福林診所,25.0970399,121.5273086,臺北市士林區中山北路五段６８５號４樓

徐永康整形外科診所,25.1190534,121.5304101,臺北市士林區中山北路七段１５號５樓

得安耳鼻喉科診所,25.108732,121.5306586,臺北市士林區忠誠路二段3號

陳彥銘耳鼻喉科診所,25.111742,121.5267149,臺北市士林區士東路１２號之１壹樓

吳錫麟診所,25.0918734,121.5068401,臺北市士林區社中街266號1樓

嘉櫻小兒科診所,25.1039488,121.5205463,臺北市士林區德行西路119號1樓

杏暉診所,25.0876786,121.5082866,臺北市士林區社子街15號

志明眼科診所,25.1149034,121.5306662,臺北市士林區天母東路8巷83號

雙林皮膚科診所,25.0874918,121.5078376,臺北市士林區社子街28號

元群眼科診所,25.0947607,121.5245804,"臺北市士林區文林路437號1
麗心整形外科診所,25.1112896,121.5304933,臺北市士林區忠誠路二段64號2樓

百齡診所,25.0843812,121.5112171,臺北市士林區重慶北路四段187號1、2樓

張虔熙小兒科診所,25.1101035,121.5256298,臺北市士林區中山北路六段282號

天母忠明2020眼科診所,25.1182749,121.5286593,臺北市士林區天母西路10號2樓之1、2樓之4

天母皮膚科診所,25.1060168,121.528615,臺北市士林區德行東路90巷33弄10號1樓

愛林診所,25.0884553,121.5214903,臺北市士林區承德路四段222號、222之1號、222之2號

臺北市立聯合醫院附設士林門診部,25.0927846,121.5196248,臺北市士林區中正路439號

黃金喜婦產科診所,25.0836154,121.5099141,臺北市士林區延平北路五段２０１號

健原診所,25.0862816,121.5086551,臺北市士林區中正路６２７號

邱世昌診所,25.1023232,121.5207755,臺北市士林區文林路７１８號

柯耳鼻喉科診所,25.0920782,121.5254776,臺北市士林區大東路１４４號

存德小兒科診所,25.0956427,121.5246202,臺北市士林區文林路460號(實際使用：1樓)

榮元外科診所,25.0827695,121.5103888,臺北市士林區延平北路五段１６２號(1樓)

蘇家醫科診所,25.089831,121.526457,臺北市士林區大北路２０號

鄭醫師診所,25.0816813,121.5106305,臺北市士林區延平北路五段120號1、2 樓

吳如壽診所,25.1111034,121.5258707,臺北市士林區中山北路六段３２２號(實際使用:1樓)

元順診所,25.103964,121.520984,臺北市士林區德行西路１０６號

惠周內兒科診所,25.090362,121.524529,臺北市士林區大北路９６號１樓

何啟?診所,25.1072942,121.5269167,臺北市士林區德行東路63號

陳剛朗耳鼻喉科診所,25.090167,121.525319,臺北市士林區大北路６４號

士林眼科診所,25.0962977,121.5243835,臺北市士林區文林路488之1號4樓

天母耳鼻喉科診所,25.1155717,121.5282372,臺北市士林區中山北路六段７４４號

徐光輝診所,25.0795158,121.5212933,臺北市士林區承德路四段１０巷８號

何叔芳小兒科診所,25.1170183,121.5168939,臺北市北投區石牌路2段90巷12號1樓

華榮診所,25.1118156,121.5104364,臺北市北投區承德路七段90號2、3樓

芯悅皮膚科診所,25.1134804,121.5108209,臺北市北投區石牌路1段57號(1、2樓)

光明診所,25.1183704,121.5167574,臺北市北投區石牌路2段99巷55號1、2樓

石牌李診所,25.110937,121.5176898,臺北市北投區西安街一段二八一巷十五號

吉安診所,25.1115582,121.5161462,臺北市北投區西安街一段２８１巷１８號

洪耳鼻喉科診所,25.1322011,121.5014555,臺北市北投區中央南路一段43號

鄭素珠診所,25.1106413,121.5146867,臺北市北投區自強街一五四號

蔡賡禧婦產科診所,25.1135081,121.5114061,臺北市北投區石牌路一段72號

紀耳鼻喉科診所,25.116562,121.5159948,臺北市北投區石牌路2段55號2樓.57號.57號2樓

怡鳴眼科診所,25.1363391,121.4962374,臺北市北投區中央北路一段一三六號一樓

大順耳鼻喉科診所,25.1363391,121.4962374,臺北市北投區中和街二三六號一樓

張智郁婦產科診所,25.1188824,121.5210654,臺北市北投區石牌路二段三三二之二號一樓

林文正耳鼻喉科診所,25.1094451,121.5196777,臺北市北投區明德路92號1樓

揚名皮膚科診所,25.13804,121.4925327,臺北市北投區中央北路二段六六號

陳如芬眼科診所,25.1131253,121.5107591,臺北市北投區石牌路一段50號(1、2樓)

泓光診所,25.118904,121.5148933,臺北市北投區立農街二段二八七號

蔡秉勳小兒科診所,25.1363391,121.4962374,臺北市北投區中和街二八一號一樓

陳獻明小兒科診所,25.1151759,121.515018,臺北市北投區中央南路一段六十九號１樓

邱耳鼻喉科診所,25.1140321,121.512213,臺北市北投區石牌路一段二十三號一、二樓

余世仁復健科診所,25.1363391,121.4962374,臺北市北投區中央北路一段十號一樓

李伯匯小兒科診所,25.1139841,121.511753,臺北市北投區石牌路一段93號

祐民聯合診所,25.1283396,121.5013486,臺北市北投區中央南路一段207號1、2、3樓、211巷1、3號1、2、3樓、209號2、3樓

昱德聯合診所,25.1330592,121.5012216,臺北市北投區光明路１０２號

佳韻婦產科診所,25.1321681,121.5013198,臺北市北投區中央南路一段42號2樓

慈恩耳鼻喉科診所,25.130341,121.5011151,臺北市北投區中央南路一段十三號

美麗新卓玉麗皮膚科診所,25.1090144,121.5197873,臺北市北投區東華街一段52號1樓，58號1樓

昱新眼科診所,25.1363391,121.4962374,臺北市北投區光明路一○四號一樓

孫劍鴻眼科診所,25.1105095,121.5186866,臺北市北投區東華街一段392號1樓

翰譽耳鼻喉科診所,25.1288727,121.5012554,臺北市北投區中央南路一段189號

家福診所,25.1148748,121.5076831,臺北市北投區實踐街13號

王景平眼科診所,25.1283829,121.5013354,臺北市北投區中央南路一段205號

劉明真皮膚科診所,25.117759,121.517168,臺北市北投區石牌路二段116號2樓

臺北市立聯合醫院附設北投門診部,25.1324185,121.5028358,臺北市北投區新市街30號5樓

和碩聯合科技股份有限公司附設醫務室,25.1248912,121.4692866,臺北市北投區立功街76號5樓

黃正宏診所,25.1115436,121.5172253,臺北市北投區西安街1段359號

依嘉美時尚診所,25.1353606,121.5030304,臺北市北投區光明路168號

宏恩兒科診所,25.1128956,121.5129465,臺北市北投區致遠一路2段99號

衡心診所,25.1360602,121.5053674,臺北市北投區光明路226號2樓

弘德診所,25.137539,121.500783,臺北市北投區雙全街64號1、2樓、66號1、2樓、68號1、2樓

崇德診所,25.1170005,121.5048864,臺北市北投區承德路七段310號1樓(含夾層)

李承鴻皮膚科診所,25.1131307,121.5130564,臺北市北投區西安街1段187號1樓、189號1樓、2樓、2樓之1

紀皮膚科診所,25.116562,121.5159948,臺北市北投區石牌路2段55號2樓.57號.57號2樓

靚亮診所,25.1153718,121.5219013,臺北市北投區明德路312號(實際使用1樓、地下1樓)

黃浩魁小兒科診所,25.1356829,121.498289,臺北市北投區中央北路一段168號

辰筠時尚診所,25.114535,121.5176482,臺北市北投區裕民六路120號5樓C

陳柏宏親子診所,25.110072,121.5204545,臺北市北投區明德路124號

陳信方小兒科診所,25.1097302,121.5197291,臺北市北投區明德路106號

奇岩身心診所,25.1287051,121.5012809,臺北市北投區中央南路一段191、193號

北投骨科診所,25.1291277,121.5008951,臺北市北投區中央南路一段176、178號

陽明診所,25.1141239,121.5136657,臺北市北投區石牌路一段166巷20號1、2樓及22號1、2樓。

慧捷診所,25.1378976,121.4849501,臺北市北投區中央北路三段59號

台北欣安耳鼻喉科診所,25.1142258,121.5131469,臺北市北投區石牌路一段152號

劉怜瑛眼科診所,25.1146741,121.5176681,臺北市北投區裕民六路126號

黃郁琳皮膚科診所,25.1328975,121.475307,臺北市北投區中央北路1段42號

真漾美診所,25.1215923,121.4674624,臺北市北投區知行路282號(2樓)、284號(2樓)

倍視眼科診所,25.1142506,121.5153551,臺北市北投區西安街一段357號(實際使用:1樓)

晟幸診所,25.1141342,121.5100614,臺北市北投區石牌路一段71巷9弄19號1樓、19之1號(1樓)

石牌鄭身心醫學診所,25.1135677,121.5110131,臺北市北投區石牌路一段69號(實際使用:1、2樓)

和新診所,25.1328975,121.475307,臺北市北投區中央北路1段2號(9樓、10樓)

鄭宇廷耳鼻喉科診所,25.1347721,121.4997803,臺北市北投區中央北路一段94號

川柳紀念外科診所,25.1149926,121.5168768,臺北市北投區裕民二路45號

榮陽安心診所,25.1110765,121.5169771,臺北市北投區自強街168號

如翊健康診所,25.118954,121.522537,臺北市北投區天母西路126號、128號、128之1號

旭康復健科診所,25.1130287,121.5105711,臺北市北投區石牌路一段40號(實際使用:1、2、3樓)

常哲診所,25.1111579,121.5205735,臺北市北投區明德路157之4號(實際使用:1樓)

北辰身心醫學診所,25.1315926,121.4995268,臺北市北投區光明路2巷9之3號1樓、9之3號2樓

臻心復健科診所,25.1085379,121.5202302,臺北市北投區東華街1段360號1樓、370號(1、2樓)、372號(1、2樓)及376號(1、2樓)

牛津眼科診所,25.1235486,121.5256445,臺北市北投區石牌路2段364號1樓及366號1樓

橙品耳鼻喉科診所,25.110419,121.5142332,臺北市北投區自強街70號1樓

心樂是診所,25.1129912,121.5127994,臺北市北投區致遠一路2段105號1樓

天母力康診所,25.1185042,121.5210206,臺北市北投區明德路365號(教學研究綜合大樓3樓)

文遠診所,25.1229715,121.5248852,臺北市北投區石牌路2段346號(1、2樓)

和勤診所,25.1277073,121.4676684,臺北市北投區中央北路4段543號1樓

豪康診所,25.1319251,121.501419,臺北市北投區中央南路一段57號2樓

石牌實和復健診所,25.1091691,121.5135904,臺北市北投區文林北路256號2樓、258號2樓、260號2樓及262號1樓

一耀診所,25.1071427,121.5153968,臺北市北投區文林北路186號1、2樓

莊其穆教授婦女醫學診所,25.1188438,121.5230237,臺北市北投區天母西路116號1樓及2樓

泰隆診所,25.1106413,121.5146867,臺北市北投區自強街一四一巷十九號

永安家庭醫學科診所,25.135722,121.498204,臺北市北投區中央北路一段172號(實際使用：一、二層)

宏德診所．,25.1163744,121.5075264,臺北市北投區尊賢街二七二號

鄭紹沂神經科診所,25.1131465,121.5108754,臺北市北投區石牌路一段54號、54號2樓及56號

長宏診所,25.1363391,121.4962374,臺北市北投區中央北路二段一二一號一樓

杏華診所,25.1203612,121.4672423,臺北市北投區知行路218號(實際使用:1樓)

清田婦產科家醫科診所,25.1417699,121.4990213,臺北市北投區中和街二六八號

張參雄診所,25.1349966,121.5026846,臺北市北投區光明路166號(1、2層)、166-1號(1、2、3層)、166-2號(2、3層)

台新診所,25.1345726,121.5024565,臺北市北投區光明路１４５號１樓

文林診所,25.114535,121.5176482,臺北市北投區裕民六路120號2樓

萬泰診所,25.1363391,121.4962374,臺北市北投區中央北路二段五二號一樓

王志靈診所,25.1151041,121.509007,臺北市北投區實踐街44號

惠康診所,25.1183599,121.5124972,臺北市北投區西安街二段113號(實際使用:1樓)

采新整形外科診所,25.1098625,121.5202558,臺北市北投區明德路114、116號2樓

王永良診所,25.1106413,121.5146867,臺北市北投區自強街九十四號

張晉豪診所,25.1295592,121.50115,臺北市北投區中央南路一段155號

洪志淳皮膚科診所,25.1289005,121.5012451,臺北市北投區中央南路一段185號1樓

康田診所,25.1104979,121.5143619,臺北市北投區自強街76號

承新診所,25.1305339,121.498764,臺北市北投區北投路二段11號

潔生診所,25.1220451,121.5236399,臺北市北投區石牌路二段321號

陳珀勳診所,25.1089257,121.5186953,臺北市北投區明德路85號

東成診所,25.0732217,121.6050073,臺北市內湖區民權東路六段495號２樓之1、之2，495號4樓

吳振光眼科診所,25.0840286,121.5951732,臺北市內湖區成功路四段四十二號三樓、五樓

立安診所,25.0838401,121.5922959,臺北市內湖區內湖路二段３６５號１樓

藍曾小兒科診所,25.067947,121.6166205,臺北市內湖區東湖路１３２號

顏鳳麟婦產科診所,25.08154,121.591469,臺北市內湖區成功路四段28號2樓

汎美皮膚科診所,25.0686934,121.612386,臺北市內湖區東湖路4號1樓

東湖眼科診所,25.0682151,121.6169339,臺北市內湖區東湖路137號

麗心診所,25.0810324,121.5908898,臺北市內湖區成功路四段2號3樓、6號3樓

東湖謝耳鼻喉科診所,25.0679175,121.6170339,臺北市內湖區東湖路148號

湖光皮膚專科診所,25.081897,121.5923978,臺北市內湖區成功路4段59之1號3樓

林孟勳診所,25.0810097,121.5933398,臺北市內湖區成功路四段61巷32弄2號1樓

東湖皮膚專科診所,25.068125,121.617419,臺北市內湖區東湖路153號

成安耳鼻喉科診所,25.0816969,121.592769,臺北市內湖區成功路四段61巷10號

薈安診所,25.0782611,121.578317,臺北市內湖區江南街6號

成功復健科診所,25.0803368,121.5902406,臺北市內湖區成功路3段162之1號1樓、164號1樓、164之1號1樓、166之1號1樓

祐生復健科診所,25.0713891,121.6095852,臺北市內湖區康寧路三段54之7號、54之11號

紫陽復健科診所,25.0776949,121.5834445,臺北市內湖區文德路208巷8號1樓、地下一樓

加安耳鼻喉科診所,25.0823089,121.5683655,臺北市內湖區內湖路1段401號1樓

哈佛眼科診所,25.0824782,121.5629432,臺北市內湖區基湖路10巷66號1樓

誠康診所,25.0811116,121.5730341,臺北市內湖區內湖路一段585號

夏一新身心精神科診所,25.079589,121.5900214,臺北市內湖區成功路三段143號4樓

焉醫師診所,25.0788595,121.5795362,臺北市內湖區內湖路2段21號1樓

晴安診所,25.0794541,121.577541,臺北市內湖區內湖路一段709之1號

栩仕診所,25.086336,121.5648544,臺北市內湖區文湖街88號3樓

內湖翰林眼科診所,25.0801787,121.5907338,臺北市內湖區成功路3段183號2樓

菁英診所,25.0658866,121.579677,臺北市內湖區行忠路58號1、2樓

內湖大學眼科診所,25.0781872,121.5827631,臺北市內湖區文德路100號1、2樓

成功皮膚科診所,25.0803368,121.5902406,臺北市內湖區成功路3段162之1號1樓、164號1樓、164之1號1樓、166之1號1樓

林登山耳鼻喉科診所,25.0783049,121.5825848,臺北市內湖區文德路96號

仁弘耳鼻喉科診所,25.0808251,121.5790082,臺北市內湖區內湖路1段737巷50弄33號1樓

瑞成診所,25.0751679,121.5750727,臺北市內湖區瑞光路258巷31號7樓

瑞健診所,25.0750123,121.5749881,臺北市內湖區瑞光路258巷37號7樓

維仁診所,25.0686387,121.5876526,臺北市內湖區民權東路六段136巷4號

康樂診所,25.0702198,121.6188382,臺北市內湖區康樂街80號、82號、84號

杜耳鼻喉科診所,25.084643,121.596213,臺北市內湖區成功路四段222號

愛惟美診所,25.081766,121.5687575,臺北市內湖區內湖路一段300號2樓之2、2樓之3

全心圓診所,25.0689731,121.5822017,臺北市內湖區瑞光路26巷36弄2號3樓及2之1號3樓

富康復健科診所,25.069379,121.6154239,臺北市內湖區東湖路113巷15號

禾馨內湖婦幼診所,25.0677497,121.5816597,臺北市內湖區民權東路六段42號5樓(之1、之2、之3)、6樓(之1、之2、之3)

禾安耳鼻喉科診所,25.0800049,121.592776,臺北市內湖區康寧路一段75號

連安診所,25.0602036,121.5912065,臺北市內湖區內湖區路一段619號及619號2樓

育睿診所,25.0823089,121.5683655,臺北市內湖區內湖路1段217巷35號1樓

詠盛診所,25.0690555,121.61394,臺北市內湖區東湖路43巷3號

辰星皮膚專科診所,25.0823089,121.5683655,臺北市內湖區內湖路1段633號1樓及635號1樓

永長欣診所,25.0645712,121.585789,臺北市內湖區行善路397號2樓

禾馨民權婦幼診所,25.0677497,121.5816597,臺北市內湖區民權東路六段42號2樓(之1、之2、之3)、3樓(之1、之2、之3)、4樓(之1、之2、之3)

適康復健科診所,25.0787692,121.5842986,臺北市內湖區文德路141、143號

晴渼皮膚專科診所,25.0823089,121.5683655,臺北市內湖區內湖路1段667巷3號1樓及5號1樓

榮欣骨科診所,25.0806978,121.5740759,臺北市內湖區內湖路一段617號1樓、2樓

湖欣診所,25.0844754,121.5990407,臺北市內湖區成功路四段327號

曜暘診所,25.0692749,121.5926975,臺北市內湖區民權東路六段123巷8號

康研診所,25.0806182,121.5631071,臺北市內湖區堤頂大道二段409號

新明診所,25.0548379,121.5803312,臺北市內湖區新明路386號

美特博霖健康管理診所,25.0589404,121.5756487,臺北市內湖區新湖一路88號5樓

林威廷身心精神科診所,25.0686772,121.6126211,臺北市內湖區東湖路10號

心力合診所,25.0685656,121.595972,臺北市內湖區民權東路六段165、167、169、171號

陳德駿婦產科診所,25.078418,121.578942,臺北市內湖區文德路８號２樓

臺北市立聯合醫院附設內湖門診部,25.0693633,121.5889951,臺北市內湖區民權東路六段99號之1(1樓)

陳森豊診所,25.0828058,121.5653646,臺北市內湖區環山路一段２號１樓及２樓

王慶森診所,25.0811815,121.5783214,臺北市內湖區港墘路６5號

魏穀年診所,25.0818572,121.5705491,臺北市內湖區內湖路一段４０３號

康育診所,25.0805298,121.5910013,臺北市內湖區成功路三段189號2樓

宋小兒科診所,25.0788849,121.5796079,臺北市內湖區內湖路二段２５號

振興內兒科診所,25.0804515,121.5909454,臺北市內湖區成功路三段１９３號

東湖張耳鼻喉科診所,25.0703043,121.6116726,臺北市內湖區康寧路三段１６９號

鍾兆智婦產科診所,25.0688288,121.6148131,臺北市內湖區東湖路６５號１Ｆ，２Ｆ及地下室

雙湖診所,25.0856403,121.5907084,臺北市內湖區金龍路四十九號一樓

達美皮膚專科診所,25.084628,121.596141,臺北市內湖區成功路四段２２０號１樓至2樓

劉淦華診所,25.0849314,121.5938903,臺北市內湖區金龍路43號

施耳鼻喉科診所,25.0682804,121.616653,臺北市內湖區東湖路127號1樓

成功眼科診所,25.08154,121.591469,臺北市內湖區成功路四段２８號４樓之２

德文復健科診所,25.081872,121.5917129,臺北市內湖區成功路四段36號2樓

成功耳鼻喉科診所,25.0803368,121.5902406,臺北市內湖區成功路3段162之1號1樓、164號1樓、164之1號1樓、166之1號1樓

鴻文婦產科診所,25.082333,121.59222,臺北市內湖區成功路四段５２號２樓

國泰醫療財團法人內湖國泰診所,25.077801,121.5756048,臺北市內湖區瑞光路337號(1、2、3、4樓)

思維診所,25.0786645,121.5805874,臺北市內湖區文德路25號

陽光活力診所,25.0792407,121.5682024,臺北市內湖區瑞光路500號1樓及502號2樓

維克多診所,25.0639283,121.5859476,臺北市內湖區行善路385號3樓之6

小禾馨民權小兒專科診所,25.0674958,121.5817825,臺北市內湖區行忠路191號

葫洲診所,25.0725892,121.6075911,臺北市內湖區康寧路三段35、37號

伊凡維納診所,25.062078,121.5877747,臺北市內湖區金莊路26號3樓之2

禾馨眼科診所,25.0674468,121.5821069,臺北市內湖區行忠路195號1、2樓

戴念國骨科診所,25.0656366,121.5774824,臺北市內湖區行忠路57號5樓

麗康診所,25.0737158,121.6042383,臺北市內湖區金湖路362號

瑞康診所,25.0772261,121.5769347,臺北市內湖區江南街96巷3號

瑞華診所,25.070285,121.5927717,臺北市內湖區民權東路6段123巷34弄30號1樓及151之1號1樓

恆新復健科診所,25.077801,121.5756048,臺北市內湖區瑞光路337號(7樓)

展欣眼科診所,25.0736955,121.604858,臺北市內湖區金湖路382號（1樓）

唯有健康診所,25.0577453,121.5774138,臺北市內湖區行善路116號(1樓)

全新圓診所,25.0689731,121.5822017,臺北市內湖區瑞光路26巷36弄2號2樓、2之1號2樓

維尚泌尿科診所,25.0823089,121.5683655,臺北市內湖區內湖路1段300號3樓之5

理真診所,25.0657051,121.5865252,臺北市內湖區金豐街16號(1樓)及18號(1樓)

奇樂三醫整合醫學診所,25.077801,121.5756048,臺北市內湖區瑞光路337號(8樓)

紫陽診所,25.0823089,121.5683655,臺北市內湖區內湖路1段118號3樓

禾馨民權內科診所,25.0676751,121.5815451,臺北市內湖區民權東路6段40號(1樓含夾層)及42號1樓(含夾層)

瑞宏診所,25.0751875,121.5750596,臺北市內湖區瑞光路258巷31號8樓、33號8樓及35號8樓

內湖101健康管理診所,25.077801,121.5756048,臺北市內湖區瑞光路337號(9樓及10樓)

內湖身心精神科診所,25.0823089,121.5683655,臺北市內湖區內湖路1段439號1樓

藝群內湖診所,25.0824062,121.5924443,臺北市內湖區成功路4段58號4樓

瑞佛健康管理診所,25.065158,121.5743977,臺北市內湖區民權東路6段8號1、2樓(實際使用:2、3層)

雅斯翠診所,25.0605596,121.5757651,臺北市內湖區新湖二路87號1、2樓

書拉密美學診所,25.0817746,121.5922803,臺北市內湖區成功路4段57號3樓

永育醫療大湖診所,25.0848386,121.6004134,臺北市內湖區成功路4段366號(1、2樓)

鑫美光視光眼科診所,25.0823089,121.5683655,臺北市內湖區內湖路1段512號1樓

佳霖診所,25.0681719,121.6172215,臺北市內湖區東湖路147號2樓

未來醫檢臨床病理科專科診所,25.0729244,121.5773152,臺北市內湖區陽光街351號6樓

樂善診所,25.0603428,121.5817182,臺北市內湖區行善路260號(1樓)

禾馨內湖內科診所,25.0674136,121.5816558,臺北市內湖區行忠路189號(1樓含夾層)

力康復健科診所,25.0823089,121.5683655,臺北市內湖區內湖路1段358號2樓

高峰診所,25.0789438,121.579836,臺北市內湖區內湖路2段39號1樓

雷文虎克精準健康診所,25.0644819,121.5747498,臺北市內湖區民善街219號5樓

抱抱心身醫學診所,25.0783305,121.5815302,臺北市內湖區文德路70號1樓及72號(1樓)

德威診所,25.0823089,121.5683655,臺北市內湖區內湖路1段667巷1號1樓

內湖全美診所,25.0823089,121.5683655,臺北市內湖區內湖路1段360巷2之1號1樓

保安診所,25.0681792,121.6170347,臺北市內湖區東湖路141之1號1、2樓

芮森醫學診所,25.0652039,121.5806986,臺北市內湖區新湖三路215號2樓

內湖美麗爾診所,25.0782685,121.5688019,臺北市內湖區瑞光路478巷22號1樓

馬丁健康管理診所,25.0649507,121.5778474,臺北市內湖區行忠路28巷1號1樓

宸諾i醫診所,25.062855,121.5872282,臺北市內湖區石潭路65號7樓

美無極慕康診所,25.0703716,121.5823053,臺北市內湖區瑞光路60號6、7樓

丁大元診所,25.0699029,121.6172042,臺北市內湖區東湖路119巷49弄4號1樓

徐醫師診所,25.0688903,121.6145569,臺北市內湖區東湖路５３號

林永正診所,25.0716923,121.6191084,臺北市內湖區康樂街１３０號

秉信診所,25.0819971,121.5918492,臺北市內湖區成功路四段40號２樓

弘育診所,25.076522,121.579249,臺北市內湖區文德路２２巷９弄６４號

馬思特診所,25.0816365,121.5921395,臺北市內湖區成功路四段５３號

慈銨診所,25.0673336,121.6160196,臺北市內湖區五分街95號1樓

西湖安康診所,25.0845851,121.5680007,臺北市內湖區內湖路一段２８５巷６５弄１８號１樓

康寧診所,25.0791377,121.5939351,臺北市內湖區康寧路一段144號1樓

洪永祥診所,25.0753789,121.5898699,臺北市內湖區成功路三段6巷1號、1號2樓

文德耳鼻喉科診所,25.0782561,121.5799443,臺北市內湖區文德路32號

內湖長春診所,25.0686424,121.5849242,臺北市內湖區民權東路六段64號

弘康復健科診所,25.0785936,121.6070835,臺北市內湖區成功路五段八十一號一樓

大愛眼科診所,25.068979,121.6129615,臺北市內湖區東湖路15號1樓

宏仁眼科診所,25.0828058,121.5653646,臺北市內湖區環山路一段2號

陳喬鴻眼科診所,25.081766,121.5687575,臺北市內湖區內湖路一段300號3樓之2、3樓之3

魏之明小兒科診所,25.0713891,121.6095852,臺北市內湖區康寧路三段54之6號1樓

日新診所,25.0747773,121.6071781,臺北市內湖區成功路五段446號1樓

南港諾貝爾眼科診所,25.044498,121.582478,臺北市南港區忠孝東路五段980號(1、2樓)

天仁小兒科診所,25.0448163,121.5867293,臺北市南港區成福路21號

麗馨診所,25.0458059,121.5854941,臺北市南港區同德路84號

南港復健科診所,25.0554101,121.6117355,臺北市南港區南港路一段172號

友力耳鼻喉科診所,25.044731,121.581604,臺北市南港區中坡北路12號1樓

開馨診所,25.0547743,121.6047706,臺北市南港區南港路二段38巷6之1號

松展診所,25.0467205,121.5850593,臺北市南港區忠孝東路六段110巷18號

艾萊診所,25.0597402,121.6113754,臺北市南港區重陽路472之1號

稚顏美學診所,25.059611,121.61049,臺北市南港區重陽路461號9樓

荃威診所,25.045768,121.5828225,臺北市南港區忠孝東路5段976號(實際營業地址:1、2層)

多田診所,25.0454341,121.5830065,臺北市南港區忠孝東路6段6號2樓之1

星源未來診所,25.0600419,121.6109136,臺北市南港區重陽路479號9樓

南港美麗爾診所,25.045768,121.5828225,臺北市南港區忠孝東路5段978號2樓

廖內兒科診所,25.0533362,121.6154195,臺北市南港區忠孝東路七段６１７號

杏林內科小兒科診所,25.0537969,121.6165989,臺北市南港區研究院路一段２５號

佑誠診所,25.046266,121.615407,臺北市南港區研究院路二段27號1樓

蔣小兒科診所,25.0439346,121.583328,臺北市南港區玉成街１６６巷３0號１樓

陳志鑫診所,25.0509295,121.581555,臺北市南港區八德路四段８１２號

劉聖亞診所,25.0558361,121.6057025,臺北市南港區興華路８２號１樓

希文耳鼻喉科診所,25.048732,121.587748,臺北市南港區忠孝東路六段234號

興盛診所,25.0456658,121.5813811,臺北市南港區永吉路546、551號、中坡北路30巷16號2樓

義仁兒科診所,25.0450034,121.5832048,臺北市南港區玉成街138號1樓

永育醫療福德診所,25.0394744,121.5878402,臺北市南港區福德街320號1樓

天慈婦產科診所,25.0454663,121.5843292,臺北市南港區同德路３７號１樓

李文珍小兒科診所,25.0455491,121.6151031,臺北市南港區研究院路2段74號

天仁健康診所,25.0448163,121.5867293,臺北市南港區成福路21號

維康診所,25.0453206,121.6151986,臺北市南港區研究院路2段84巷1號1樓

優勢皮膚科診所,25.0443653,121.5830205,臺北市南港區玉成街140巷11弄2號

泓安耳鼻喉科診所,25.0551837,121.6061129,臺北市南港區興華路75號

奕賢骨科外科診所,25.0503981,121.580148,臺北市南港區八德路四段774、776號

杏安診所,25.0457147,121.585303,臺北市南港區同德路74號、76號

康禾診所,25.05307,121.6133521,臺北市南港區忠孝東路七段551號

臺北市立聯合醫院附設南港門診部,25.056454,121.613465,臺北市南港區南港路1段360號1樓

黃家庭醫學科診所,25.0503319,121.6157499,臺北市南港區研究院路一段１６１號

翊群耳鼻喉科診所,25.0558161,121.6125282,臺北市南港區興東街29之1號

湯眼科診所,25.0500731,121.6157814,臺北市南港區研究院路一段１６９號１樓

隆美皮膚科診所,25.0533467,121.6155065,臺北市南港區忠孝東路七段6２1號

冠德耳鼻喉科診所,25.0540743,121.6167084,臺北市南港區研究院路一段１７號１樓

中研耳鼻喉科診所,25.0474756,121.6157658,臺北市南港區研究院路二段3之9號1樓

中坡耳鼻喉科診所,25.0433858,121.5833753,臺北市南港區中坡南路29號

陳勝吉診所,25.0515579,121.6161373,臺北市南港區研究院路一段115號1樓

吉盛興盛診所,25.0456322,121.5812537,臺北市南港區永吉路547號及中坡北路30巷12號2樓、3樓

慈慧內科眼科聯合診所,25.0006666,121.5392804,臺北市文山區羅斯福路五段264號

普仁診所,24.9838807,121.5620706,臺北市文山區興隆路四段１７１號

陳建業診所,24.990568,121.5409631,臺北市文山區景文街86號(1樓、2樓)、107號6樓

林建輝小兒科診所,24.9997064,121.5479708,臺北市文山區興隆路二段７０號

瀚霖眼科診所,24.9991766,121.5461989,臺北市文山區興隆路二段６７號

景升診所,24.9994272,121.5469837,臺北市文山區興隆路二段９３之１號(實際營業事實為1樓及地下1樓）、95巷1號2樓、95巷3號2樓

葉洪小兒科診所,25.0004464,121.5559042,臺北市文山區興隆路三段二Ｏ二號一樓

洪佑承小兒專科診所,24.9849449,121.5614022,臺北市文山區興隆路四段64之2號

晉康復健科診所,25.001107,121.553395,臺北市文山區興隆路二段２２８之１號１樓

黃皮膚科診所,25.0004485,121.5567924,臺北市文山區興隆路三段７９巷５號１及２樓

春林復健科診所,24.981197,121.5591215,臺北市文山區木新路三段229號

目欣眼科診所,24.9844674,121.569549,臺北市文山區木新路二段１２０號

官世英診所,24.9932365,121.5444168,臺北市文山區景興路四十五號

平安耳鼻喉科診所,24.9822989,121.5627612,臺北市文山區木新路三段１０６號１樓

許至文耳鼻喉科診所,24.9875518,121.5687715,臺北市文山區指南路一段2號

高鳴傑 眼科診所,24.9812542,121.5593088,臺北市文山區木新路三段223號

屈銘軒小兒科診所,25.0017769,121.5535166,臺北市文山區興隆路二段301巷4-2號

興隆診所,25.0004464,121.5559042,臺北市文山區興隆路三段一一二巷九號一樓、地下一樓

漂亮101皮膚科診所,24.9914095,121.5418262,臺北市文山區景美街20號2樓

長欣婦產科診所,24.9866234,121.5608752,臺北市文山區興隆路四段六十號一樓

黃偉志小兒科診所,24.9923959,121.540116,臺北市文山區萬慶街12號1樓

世誠耳鼻喉科診所,24.984261,121.5594164,臺北市文山區忠順街一段107號1樓

臺北市立聯合醫院附設政大門診部,24.987628,121.5765284,臺北市文山區指南路二段117號

臺灣警察專科學校醫務室,24.9996649,121.5609048,臺北市文山區興隆路三段153號

佳鴻診所,24.9918232,121.5401623,臺北市文山區羅斯福路6段256號1樓

誠心身心醫學診所,24.9965863,121.5407232,臺北市文山區羅斯福路6段138號1樓

欣成診所,25.0052359,121.5567223,臺北市文山區辛亥路4段128之1號3樓

蘇黎世診所,25.0004629,121.5551377,臺北市文山區興隆路3段28號(1樓、2樓)

莊豐賓泌尿科診所,25.0012067,121.5530828,臺北市文山區興隆路2段224之4號1樓及地下1樓

文山上明眼科診所,25.0014847,121.551944,臺北市文山區興隆路2段198號(1樓)、196號2樓之1

究美診所,24.9997849,121.5564855,臺北市文山區興隆路3段76號5樓之3

萬隆力康復健科診所,25.004707,121.539156,臺北市文山區羅斯福路5段127號2樓、129號2樓

山林診所,24.9916537,121.540538,臺北市文山區羅斯福路6段407號2樓、2樓之1

瑞杏診所,24.9978941,121.5410995,臺北市文山區羅斯福路六段１５９巷１弄１２號1、2樓

健誠診所,24.9820811,121.561991,臺北市文山區木新路三段１２４號１樓

吳錫賢診所,24.9814846,121.5599145,臺北市文山區木新路三段２０８號１樓

徐文治診所,24.9810437,121.5585686,臺北市文山區木新路三段２４９號１樓

陳啟義眼科診所,24.997727,121.5590779,臺北市文山區興隆路三段204號１樓

德安小兒科診所,24.9895993,121.5595664,臺北市文山區興隆路四段６－１０號

欣民診所,24.987855,121.5687,臺北市文山區保儀路37號

慈幼診所,24.9873688,121.577215,臺北市文山區指南路二段二十一號一樓

林醫師診所,24.9940436,121.5447916,臺北市文山區景興路１４５號

景福眼科診所,24.9901437,121.5394787,臺北市文山區羅斯福路六段318號

瑞萱診所,24.9957675,121.546905,臺北市文山區景華街一二四號

徐慧玲診所,24.9884068,121.5604923,臺北市文山區興隆路四段97號

震杰小兒科診所,24.9944281,121.5449064,臺北市文山區景興路129號1樓

愛文診所,24.9981052,121.5741459,臺北市文山區木柵路4段141號1樓及143號1樓

李信成眼科診所,24.9860185,121.5609538,臺北市文山區興隆路四段54之7號1樓

景安診所,24.9967555,121.5407055,臺北市文山區羅斯福路六段136號2樓

房國堂小兒專科診所,24.9829386,121.566219,臺北市文山區木新路二段269號

定安診所,24.9933198,121.5446382,臺北市文山區景興路165號(實際營業為第一層)

林正豐診所,24.9881246,121.5686962,臺北市文山區保儀路25號

文山復健科診所,24.9948589,121.5598129,臺北市文山區興隆路三段207之4號、207之5號

聯恩診所,24.9891094,121.5628936,臺北市文山區木柵路2段155號1樓

王令時內科診所,25.0015179,121.5519347,臺北市文山區興隆路二段200號

林坤霖耳鼻喉科診所,25.0001801,121.5393979,臺北市文山區羅斯福路六段14號

東翰診所,25.0002238,121.5481691,臺北市文山區興隆路二段139號

合康復健科診所,24.9826033,121.5625156,臺北市文山區興隆路四段217號(實際營業場所1樓、2樓)

邱成湦皮膚專科診所,24.9842189,121.5619615,臺北市文山區興隆路4段163號(1樓及夾層)、163之1號(1樓及夾層)

秀明診所,24.9916794,121.5746123,臺北市文山區秀明路2段22號

秀心診所,24.988374,121.5684297,臺北市文山區保儀路26巷1號2樓之1

王家庭醫學科診所,25.001527,121.570627,臺北市文山區萬安街9號(實際使用第一層)

木柵身心診所,25.0016364,121.5549194,臺北市文山區辛亥路四段246號

芳馨診所,24.9995679,121.5478179,臺北市文山區興隆路二段62號

德康耳鼻喉科診所,24.9917838,121.5401566,臺北市文山區羅斯福路六段260號

健鑫診所,24.9840155,121.5593211,臺北市文山區忠順街一段28號

樂群耳鼻喉科家醫科診所,24.9817264,121.5600228,臺北市文山區木新路三段202號

仁荔健康診所,24.9984466,121.5449346,臺北市文山區興隆路一段258號

旭明眼科診所,24.991685,121.5439387,臺北市文山區景興路203號

璟美眼科診所,24.990931,121.5398052,臺北市文山區羅斯福路6段292號

慶如診所,24.9925426,121.5398228,臺北市文山區萬慶街18號2樓

風寀時尚診所,24.9923807,121.5403217,臺北市文山區羅斯福路六段236號(實際營業地址：1樓及夾層)

大豐耳鼻喉科診所,24.9815282,121.5594179,臺北市文山區木新路三段220號

明瀚骨科診所,24.987597,121.5684503,臺北市文山區保儀路58號(實際營業地址：1樓及第1層夾層)

和沛身心醫學診所,25.0017786,121.5388658,臺北市文山區羅斯福路五段232號

愛文婦產科診所,24.9981052,121.5741459,臺北市文山區木柵路4段141號1樓及143號1樓

黃兆宜曙光診所,24.9931749,121.5414161,臺北市文山區景文街1號3樓

順欣診所,24.99168,121.5711331,臺北市文山區木柵路3段112號(實際營業地址：一層、二層)

夏安皮膚專科診所,25.0004853,121.5550786,臺北市文山區興隆路3段26號(1樓、2樓)

仁耀診所,24.9989946,121.5444203,臺北市文山區興隆路一段２７３號

保順診所,24.9837704,121.567767,臺北市文山區木新路二段２０６號

楊向榮耳鼻喉科診所,25.0019984,121.5392058,臺北市文山區羅斯福路五段２２３號

興隆李內兒科診所,25.0041658,121.5393423,臺北市文山區興隆路一段１２號

景美蔡登元婦產科診所,25.0008342,121.5493929,臺北市文山區興隆路二段１８９號

李聯合診所,25.0044826,121.5385978,臺北市文山區羅斯福路五段１７０巷１－３號２樓

興隆內科小兒科診所,24.9989099,121.545417,臺北市文山區興隆路二段１７號

泓仁診所,24.9829018,121.5661086,臺北市文山區木新路二段２７３號

澤文診所,24.9853411,121.5615454,臺北市文山區興隆路四段１３３號１樓

